<?xml version="1.0" encoding="UTF-8"?>
<gpx version="1.1" creator="gruenhainichen.com" xmlns="http://www.topografix.com/GPX/1/1">
<metadata><name>Bambiniwanderweg mit Waldlabyrinth</name><desc>Kurze Familienrunde mit Mitmachstationen, Quiz und dem Waldlabyrinth, das in den neuen Bundesländern einmalig ist. Quelle: Gemeinde Grünhainichen / Verwaltungsverband Wildenstein über Outdooractive</desc><time>2026-09-24T00:00:00Z</time></metadata>
<trk><name>Bambiniwanderweg mit Waldlabyrinth</name><trkseg><trkpt lat="50.770666" lon="13.184194"><ele>402</ele></trkpt><trkpt lat="50.770822" lon="13.184397"><ele>404</ele></trkpt><trkpt lat="50.771002" lon="13.18463"><ele>406</ele></trkpt><trkpt lat="50.771103" lon="13.184765"><ele>408</ele></trkpt><trkpt lat="50.771299" lon="13.184968"><ele>411</ele></trkpt><trkpt lat="50.771253" lon="13.185042"><ele>411</ele></trkpt><trkpt lat="50.771253" lon="13.185041"><ele>411</ele></trkpt><trkpt lat="50.771089" lon="13.1853"><ele>412</ele></trkpt><trkpt lat="50.770879" lon="13.185633"><ele>413</ele></trkpt><trkpt lat="50.770637" lon="13.186044"><ele>415</ele></trkpt><trkpt lat="50.770405" lon="13.186453"><ele>414</ele></trkpt><trkpt lat="50.770289" lon="13.186657"><ele>413</ele></trkpt><trkpt lat="50.770252" lon="13.186691"><ele>413</ele></trkpt><trkpt lat="50.770076" lon="13.186775"><ele>411</ele></trkpt><trkpt lat="50.770011" lon="13.186816"><ele>411</ele></trkpt><trkpt lat="50.769841" lon="13.186944"><ele>410</ele></trkpt><trkpt lat="50.769792" lon="13.186982"><ele>409</ele></trkpt><trkpt lat="50.769863" lon="13.187186"><ele>410</ele></trkpt><trkpt lat="50.76983" lon="13.187237"><ele>410</ele></trkpt><trkpt lat="50.769816" lon="13.187303"><ele>411</ele></trkpt><trkpt lat="50.769814" lon="13.187413"><ele>411</ele></trkpt><trkpt lat="50.769814" lon="13.187461"><ele>411</ele></trkpt><trkpt lat="50.769822" lon="13.18751"><ele>412</ele></trkpt><trkpt lat="50.769846" lon="13.187625"><ele>412</ele></trkpt><trkpt lat="50.769834" lon="13.187686"><ele>413</ele></trkpt><trkpt lat="50.769828" lon="13.187768"><ele>413</ele></trkpt><trkpt lat="50.769811" lon="13.188149"><ele>415</ele></trkpt><trkpt lat="50.769802" lon="13.188518"><ele>419</ele></trkpt><trkpt lat="50.769785" lon="13.188621"><ele>420</ele></trkpt><trkpt lat="50.769759" lon="13.188711"><ele>421</ele></trkpt><trkpt lat="50.769641" lon="13.188969"><ele>424</ele></trkpt><trkpt lat="50.769472" lon="13.189259"><ele>426</ele></trkpt><trkpt lat="50.76943" lon="13.189338"><ele>426</ele></trkpt><trkpt lat="50.769385" lon="13.189438"><ele>427</ele></trkpt><trkpt lat="50.769376" lon="13.189459"><ele>427</ele></trkpt><trkpt lat="50.769337" lon="13.189613"><ele>427</ele></trkpt><trkpt lat="50.76925" lon="13.190272"><ele>431</ele></trkpt><trkpt lat="50.76923" lon="13.19035"><ele>431</ele></trkpt><trkpt lat="50.769197" lon="13.190428"><ele>431</ele></trkpt><trkpt lat="50.769026" lon="13.190749"><ele>432</ele></trkpt><trkpt lat="50.768962" lon="13.190889"><ele>432</ele></trkpt><trkpt lat="50.768862" lon="13.191145"><ele>433</ele></trkpt><trkpt lat="50.768776" lon="13.191441"><ele>435</ele></trkpt><trkpt lat="50.768645" lon="13.192098"><ele>438</ele></trkpt><trkpt lat="50.768572" lon="13.192332"><ele>440</ele></trkpt><trkpt lat="50.768457" lon="13.192685"><ele>442</ele></trkpt><trkpt lat="50.768385" lon="13.193035"><ele>444</ele></trkpt><trkpt lat="50.768288" lon="13.193702"><ele>447</ele></trkpt><trkpt lat="50.768222" lon="13.194095"><ele>449</ele></trkpt><trkpt lat="50.768188" lon="13.1943"><ele>450</ele></trkpt><trkpt lat="50.768156" lon="13.194487"><ele>451</ele></trkpt><trkpt lat="50.768096" lon="13.194901"><ele>453</ele></trkpt><trkpt lat="50.768036" lon="13.195315"><ele>455</ele></trkpt><trkpt lat="50.767997" lon="13.195662"><ele>458</ele></trkpt><trkpt lat="50.76796" lon="13.195814"><ele>459</ele></trkpt><trkpt lat="50.767852" lon="13.196266"><ele>462</ele></trkpt><trkpt lat="50.767749" lon="13.196626"><ele>464</ele></trkpt><trkpt lat="50.767647" lon="13.196986"><ele>467</ele></trkpt><trkpt lat="50.767605" lon="13.197211"><ele>469</ele></trkpt><trkpt lat="50.767597" lon="13.197564"><ele>471</ele></trkpt><trkpt lat="50.76762" lon="13.197859"><ele>472</ele></trkpt><trkpt lat="50.767637" lon="13.198269"><ele>474</ele></trkpt><trkpt lat="50.767661" lon="13.198432"><ele>475</ele></trkpt><trkpt lat="50.767658" lon="13.198447"><ele>475</ele></trkpt><trkpt lat="50.767619" lon="13.198694"><ele>475</ele></trkpt><trkpt lat="50.767498" lon="13.199314"><ele>477</ele></trkpt><trkpt lat="50.767378" lon="13.199933"><ele>479</ele></trkpt><trkpt lat="50.767258" lon="13.200553"><ele>480</ele></trkpt><trkpt lat="50.767132" lon="13.2012"><ele>482</ele></trkpt><trkpt lat="50.767006" lon="13.201847"><ele>484</ele></trkpt><trkpt lat="50.76688" lon="13.202507"><ele>486</ele></trkpt><trkpt lat="50.766754" lon="13.203167"><ele>490</ele></trkpt><trkpt lat="50.766627" lon="13.203828"><ele>493</ele></trkpt><trkpt lat="50.766505" lon="13.204469"><ele>496</ele></trkpt><trkpt lat="50.766501" lon="13.204488"><ele>496</ele></trkpt><trkpt lat="50.766163" lon="13.204412"><ele>495</ele></trkpt><trkpt lat="50.765825" lon="13.204336"><ele>494</ele></trkpt><trkpt lat="50.765488" lon="13.204261"><ele>493</ele></trkpt><trkpt lat="50.765186" lon="13.204178"><ele>492</ele></trkpt><trkpt lat="50.764922" lon="13.204003"><ele>490</ele></trkpt><trkpt lat="50.764627" lon="13.203778"><ele>489</ele></trkpt><trkpt lat="50.76432" lon="13.203587"><ele>487</ele></trkpt><trkpt lat="50.764121" lon="13.203544"><ele>487</ele></trkpt><trkpt lat="50.763915" lon="13.203531"><ele>487</ele></trkpt><trkpt lat="50.763751" lon="13.203557"><ele>486</ele></trkpt><trkpt lat="50.763556" lon="13.203613"><ele>486</ele></trkpt><trkpt lat="50.763198" lon="13.203733"><ele>487</ele></trkpt><trkpt lat="50.763037" lon="13.203742"><ele>487</ele></trkpt><trkpt lat="50.762977" lon="13.20373"><ele>486</ele></trkpt><trkpt lat="50.76287" lon="13.20371"><ele>486</ele></trkpt><trkpt lat="50.762805" lon="13.203621"><ele>486</ele></trkpt><trkpt lat="50.762699" lon="13.203359"><ele>485</ele></trkpt><trkpt lat="50.762586" lon="13.203013"><ele>483</ele></trkpt><trkpt lat="50.762438" lon="13.202554"><ele>481</ele></trkpt><trkpt lat="50.762289" lon="13.202096"><ele>479</ele></trkpt><trkpt lat="50.76215" lon="13.20173"><ele>477</ele></trkpt><trkpt lat="50.761981" lon="13.201468"><ele>476</ele></trkpt><trkpt lat="50.761985" lon="13.201354"><ele>476</ele></trkpt><trkpt lat="50.761987" lon="13.201282"><ele>476</ele></trkpt><trkpt lat="50.762" lon="13.200802"><ele>474</ele></trkpt><trkpt lat="50.762005" lon="13.200301"><ele>472</ele></trkpt><trkpt lat="50.762141" lon="13.199761"><ele>469</ele></trkpt><trkpt lat="50.762223" lon="13.199285"><ele>467</ele></trkpt><trkpt lat="50.762224" lon="13.19928"><ele>467</ele></trkpt><trkpt lat="50.762305" lon="13.19881"><ele>465</ele></trkpt><trkpt lat="50.762387" lon="13.198334"><ele>463</ele></trkpt><trkpt lat="50.762477" lon="13.197789"><ele>459</ele></trkpt><trkpt lat="50.762566" lon="13.197245"><ele>456</ele></trkpt><trkpt lat="50.762638" lon="13.196816"><ele>453</ele></trkpt><trkpt lat="50.76271" lon="13.196388"><ele>451</ele></trkpt><trkpt lat="50.762747" lon="13.1961"><ele>449</ele></trkpt><trkpt lat="50.762783" lon="13.196003"><ele>449</ele></trkpt><trkpt lat="50.76286" lon="13.195789"><ele>448</ele></trkpt><trkpt lat="50.762973" lon="13.195478"><ele>448</ele></trkpt><trkpt lat="50.762997" lon="13.195016"><ele>446</ele></trkpt><trkpt lat="50.763051" lon="13.194423"><ele>446</ele></trkpt><trkpt lat="50.763087" lon="13.193997"><ele>446</ele></trkpt><trkpt lat="50.763123" lon="13.19357"><ele>446</ele></trkpt><trkpt lat="50.763077" lon="13.193276"><ele>445</ele></trkpt><trkpt lat="50.763136" lon="13.19279"><ele>446</ele></trkpt><trkpt lat="50.763194" lon="13.192303"><ele>447</ele></trkpt><trkpt lat="50.76321" lon="13.19188"><ele>446</ele></trkpt><trkpt lat="50.763226" lon="13.191456"><ele>445</ele></trkpt><trkpt lat="50.76329" lon="13.191079"><ele>444</ele></trkpt><trkpt lat="50.763354" lon="13.190701"><ele>443</ele></trkpt><trkpt lat="50.76362" lon="13.190177"><ele>445</ele></trkpt><trkpt lat="50.763885" lon="13.189652"><ele>446</ele></trkpt><trkpt lat="50.763965" lon="13.189565"><ele>446</ele></trkpt><trkpt lat="50.764219" lon="13.189285"><ele>447</ele></trkpt><trkpt lat="50.764553" lon="13.188918"><ele>447</ele></trkpt><trkpt lat="50.764684" lon="13.188746"><ele>446</ele></trkpt><trkpt lat="50.764795" lon="13.188523"><ele>445</ele></trkpt><trkpt lat="50.764956" lon="13.188167"><ele>444</ele></trkpt><trkpt lat="50.765116" lon="13.18781"><ele>443</ele></trkpt><trkpt lat="50.765265" lon="13.187436"><ele>442</ele></trkpt><trkpt lat="50.765414" lon="13.187061"><ele>441</ele></trkpt><trkpt lat="50.765617" lon="13.186434"><ele>438</ele></trkpt><trkpt lat="50.765724" lon="13.18628"><ele>437</ele></trkpt><trkpt lat="50.765978" lon="13.186014"><ele>435</ele></trkpt><trkpt lat="50.766367" lon="13.185709"><ele>432</ele></trkpt><trkpt lat="50.766549" lon="13.185644"><ele>431</ele></trkpt><trkpt lat="50.7666" lon="13.185579"><ele>431</ele></trkpt><trkpt lat="50.7666" lon="13.18558"><ele>431</ele></trkpt><trkpt lat="50.766617" lon="13.185558"><ele>431</ele></trkpt><trkpt lat="50.766307" lon="13.185493"><ele>432</ele></trkpt><trkpt lat="50.766022" lon="13.185594"><ele>433</ele></trkpt><trkpt lat="50.76594" lon="13.185669"><ele>433</ele></trkpt><trkpt lat="50.765835" lon="13.185676"><ele>433</ele></trkpt><trkpt lat="50.765726" lon="13.185627"><ele>433</ele></trkpt><trkpt lat="50.765648" lon="13.185446"><ele>432</ele></trkpt><trkpt lat="50.765357" lon="13.185522"><ele>431</ele></trkpt><trkpt lat="50.765235" lon="13.185556"><ele>431</ele></trkpt><trkpt lat="50.76522" lon="13.185333"><ele>430</ele></trkpt><trkpt lat="50.765176" lon="13.184895"><ele>427</ele></trkpt><trkpt lat="50.76517" lon="13.184831"><ele>426</ele></trkpt><trkpt lat="50.765569" lon="13.184701"><ele>428</ele></trkpt><trkpt lat="50.765881" lon="13.184604"><ele>429</ele></trkpt><trkpt lat="50.765906" lon="13.184249"><ele>428</ele></trkpt><trkpt lat="50.765899" lon="13.184118"><ele>428</ele></trkpt><trkpt lat="50.765864" lon="13.183818"><ele>428</ele></trkpt><trkpt lat="50.765862" lon="13.183635"><ele>428</ele></trkpt><trkpt lat="50.765876" lon="13.183636"><ele>428</ele></trkpt><trkpt lat="50.766113" lon="13.183645"><ele>428</ele></trkpt><trkpt lat="50.76629" lon="13.183613"><ele>428</ele></trkpt><trkpt lat="50.766431" lon="13.183582"><ele>428</ele></trkpt><trkpt lat="50.766711" lon="13.183522"><ele>426</ele></trkpt><trkpt lat="50.767015" lon="13.18347"><ele>423</ele></trkpt><trkpt lat="50.76712" lon="13.183452"><ele>422</ele></trkpt><trkpt lat="50.767248" lon="13.183447"><ele>420</ele></trkpt><trkpt lat="50.767294" lon="13.183447"><ele>420</ele></trkpt><trkpt lat="50.767273" lon="13.183411"><ele>420</ele></trkpt><trkpt lat="50.767248" lon="13.183447"><ele>420</ele></trkpt><trkpt lat="50.767537" lon="13.183446"><ele>417</ele></trkpt><trkpt lat="50.767688" lon="13.183483"><ele>415</ele></trkpt><trkpt lat="50.767802" lon="13.183553"><ele>414</ele></trkpt><trkpt lat="50.767881" lon="13.183617"><ele>413</ele></trkpt><trkpt lat="50.767978" lon="13.18374"><ele>411</ele></trkpt><trkpt lat="50.768165" lon="13.18418"><ele>409</ele></trkpt><trkpt lat="50.768198" lon="13.184311"><ele>409</ele></trkpt><trkpt lat="50.768216" lon="13.184441"><ele>409</ele></trkpt><trkpt lat="50.768233" lon="13.184557"><ele>408</ele></trkpt><trkpt lat="50.768271" lon="13.184687"><ele>408</ele></trkpt><trkpt lat="50.768419" lon="13.185155"><ele>406</ele></trkpt><trkpt lat="50.768457" lon="13.185235"><ele>406</ele></trkpt><trkpt lat="50.768522" lon="13.185317"><ele>406</ele></trkpt><trkpt lat="50.768771" lon="13.185492"><ele>404</ele></trkpt><trkpt lat="50.768786" lon="13.185502"><ele>404</ele></trkpt><trkpt lat="50.768876" lon="13.18551"><ele>404</ele></trkpt><trkpt lat="50.768941" lon="13.185492"><ele>404</ele></trkpt><trkpt lat="50.769015" lon="13.185449"><ele>403</ele></trkpt><trkpt lat="50.769029" lon="13.18543"><ele>403</ele></trkpt><trkpt lat="50.769342" lon="13.185005"><ele>402</ele></trkpt><trkpt lat="50.769461" lon="13.184886"><ele>402</ele></trkpt><trkpt lat="50.76963" lon="13.184621"><ele>401</ele></trkpt><trkpt lat="50.76979" lon="13.18437"><ele>401</ele></trkpt><trkpt lat="50.769799" lon="13.184355"><ele>401</ele></trkpt><trkpt lat="50.769877" lon="13.184343"><ele>400</ele></trkpt><trkpt lat="50.769962" lon="13.18436"><ele>400</ele></trkpt><trkpt lat="50.769917" lon="13.184553"><ele>401</ele></trkpt><trkpt lat="50.770121" lon="13.18471"><ele>402</ele></trkpt><trkpt lat="50.770127" lon="13.184702"><ele>402</ele></trkpt><trkpt lat="50.770267" lon="13.184527"><ele>402</ele></trkpt><trkpt lat="50.770357" lon="13.184463"><ele>402</ele></trkpt><trkpt lat="50.770427" lon="13.184476"><ele>402</ele></trkpt><trkpt lat="50.77047" lon="13.184524"><ele>403</ele></trkpt><trkpt lat="50.770642" lon="13.184164"><ele>402</ele></trkpt><trkpt lat="50.770666" lon="13.184194"><ele>402</ele></trkpt></trkseg></trk>
</gpx>