<?xml version="1.0" encoding="UTF-8"?>
<gpx version="1.1" creator="gruenhainichen.com" xmlns="http://www.topografix.com/GPX/1/1">
<metadata><name>4-Mühlentour Grünhainichen</name><desc>Von der Rochhausmühle über Spanziehmühle und Schwarzmühle zur Rollemühle, mit Spieldosenplatz, Schaukelbrücke und weiten Blicken. Quelle: Gemeinde Grünhainichen / Verwaltungsverband Wildenstein über Outdooractive</desc><time>2026-09-24T00:00:00Z</time></metadata>
<trk><name>4-Mühlentour Grünhainichen</name><trkseg><trkpt lat="50.774834" lon="13.163033"><ele>346</ele></trkpt><trkpt lat="50.774958" lon="13.163019"><ele>346</ele></trkpt><trkpt lat="50.77515" lon="13.163057"><ele>343</ele></trkpt><trkpt lat="50.775412" lon="13.163107"><ele>340</ele></trkpt><trkpt lat="50.775552" lon="13.163112"><ele>339</ele></trkpt><trkpt lat="50.775623" lon="13.163109"><ele>339</ele></trkpt><trkpt lat="50.775823" lon="13.163078"><ele>338</ele></trkpt><trkpt lat="50.776017" lon="13.16304"><ele>338</ele></trkpt><trkpt lat="50.776223" lon="13.162988"><ele>337</ele></trkpt><trkpt lat="50.776477" lon="13.162835"><ele>337</ele></trkpt><trkpt lat="50.776686" lon="13.162705"><ele>338</ele></trkpt><trkpt lat="50.776864" lon="13.162536"><ele>338</ele></trkpt><trkpt lat="50.776992" lon="13.162374"><ele>339</ele></trkpt><trkpt lat="50.777106" lon="13.162201"><ele>341</ele></trkpt><trkpt lat="50.777226" lon="13.162006"><ele>341</ele></trkpt><trkpt lat="50.777367" lon="13.161719"><ele>342</ele></trkpt><trkpt lat="50.777481" lon="13.161469"><ele>341</ele></trkpt><trkpt lat="50.777565" lon="13.161256"><ele>341</ele></trkpt><trkpt lat="50.777648" lon="13.160987"><ele>341</ele></trkpt><trkpt lat="50.777781" lon="13.160549"><ele>341</ele></trkpt><trkpt lat="50.777915" lon="13.16011"><ele>337</ele></trkpt><trkpt lat="50.77801" lon="13.159784"><ele>337</ele></trkpt><trkpt lat="50.778092" lon="13.159623"><ele>337</ele></trkpt><trkpt lat="50.778213" lon="13.159425"><ele>338</ele></trkpt><trkpt lat="50.778305" lon="13.159191"><ele>339</ele></trkpt><trkpt lat="50.778352" lon="13.15894"><ele>340</ele></trkpt><trkpt lat="50.778353" lon="13.158945"><ele>340</ele></trkpt><trkpt lat="50.778357" lon="13.158915"><ele>340</ele></trkpt><trkpt lat="50.778388" lon="13.15875"><ele>341</ele></trkpt><trkpt lat="50.778453" lon="13.158551"><ele>341</ele></trkpt><trkpt lat="50.778524" lon="13.158399"><ele>341</ele></trkpt><trkpt lat="50.778616" lon="13.158236"><ele>340</ele></trkpt><trkpt lat="50.778741" lon="13.157963"><ele>340</ele></trkpt><trkpt lat="50.778816" lon="13.157781"><ele>340</ele></trkpt><trkpt lat="50.778848" lon="13.157703"><ele>340</ele></trkpt><trkpt lat="50.778888" lon="13.157529"><ele>340</ele></trkpt><trkpt lat="50.778917" lon="13.157376"><ele>340</ele></trkpt><trkpt lat="50.778926" lon="13.157278"><ele>340</ele></trkpt><trkpt lat="50.778942" lon="13.157113"><ele>339</ele></trkpt><trkpt lat="50.778925" lon="13.156913"><ele>339</ele></trkpt><trkpt lat="50.77896" lon="13.156731"><ele>337</ele></trkpt><trkpt lat="50.77913" lon="13.156538"><ele>334</ele></trkpt><trkpt lat="50.779253" lon="13.15648"><ele>335</ele></trkpt><trkpt lat="50.779266" lon="13.156474"><ele>335</ele></trkpt><trkpt lat="50.779327" lon="13.156445"><ele>335</ele></trkpt><trkpt lat="50.779114" lon="13.155872"><ele>337</ele></trkpt><trkpt lat="50.778953" lon="13.155446"><ele>340</ele></trkpt><trkpt lat="50.77886" lon="13.155058"><ele>343</ele></trkpt><trkpt lat="50.77876" lon="13.154745"><ele>346</ele></trkpt><trkpt lat="50.778694" lon="13.154622"><ele>346</ele></trkpt><trkpt lat="50.778646" lon="13.154524"><ele>345</ele></trkpt><trkpt lat="50.778633" lon="13.154499"><ele>345</ele></trkpt><trkpt lat="50.778583" lon="13.154423"><ele>345</ele></trkpt><trkpt lat="50.778497" lon="13.154351"><ele>344</ele></trkpt><trkpt lat="50.778466" lon="13.154332"><ele>343</ele></trkpt><trkpt lat="50.778407" lon="13.154298"><ele>343</ele></trkpt><trkpt lat="50.778345" lon="13.154261"><ele>343</ele></trkpt><trkpt lat="50.778223" lon="13.1542"><ele>342</ele></trkpt><trkpt lat="50.778131" lon="13.154165"><ele>342</ele></trkpt><trkpt lat="50.778037" lon="13.154096"><ele>342</ele></trkpt><trkpt lat="50.777926" lon="13.153919"><ele>342</ele></trkpt><trkpt lat="50.777799" lon="13.153707"><ele>343</ele></trkpt><trkpt lat="50.777611" lon="13.15344"><ele>344</ele></trkpt><trkpt lat="50.77742" lon="13.153211"><ele>346</ele></trkpt><trkpt lat="50.777291" lon="13.153077"><ele>347</ele></trkpt><trkpt lat="50.777145" lon="13.152884"><ele>348</ele></trkpt><trkpt lat="50.777031" lon="13.152707"><ele>349</ele></trkpt><trkpt lat="50.776927" lon="13.152526"><ele>350</ele></trkpt><trkpt lat="50.776868" lon="13.152387"><ele>350</ele></trkpt><trkpt lat="50.776795" lon="13.152227"><ele>352</ele></trkpt><trkpt lat="50.776736" lon="13.152118"><ele>352</ele></trkpt><trkpt lat="50.776682" lon="13.152031"><ele>353</ele></trkpt><trkpt lat="50.776635" lon="13.151987"><ele>353</ele></trkpt><trkpt lat="50.776479" lon="13.151861"><ele>353</ele></trkpt><trkpt lat="50.77639" lon="13.151805"><ele>353</ele></trkpt><trkpt lat="50.776276" lon="13.151756"><ele>354</ele></trkpt><trkpt lat="50.776167" lon="13.151743"><ele>354</ele></trkpt><trkpt lat="50.776064" lon="13.151703"><ele>355</ele></trkpt><trkpt lat="50.776044" lon="13.151681"><ele>355</ele></trkpt><trkpt lat="50.776064" lon="13.151703"><ele>355</ele></trkpt><trkpt lat="50.775956" lon="13.151937"><ele>357</ele></trkpt><trkpt lat="50.775899" lon="13.152048"><ele>359</ele></trkpt><trkpt lat="50.775768" lon="13.152285"><ele>363</ele></trkpt><trkpt lat="50.775656" lon="13.152469"><ele>365</ele></trkpt><trkpt lat="50.775511" lon="13.152653"><ele>368</ele></trkpt><trkpt lat="50.775407" lon="13.152791"><ele>370</ele></trkpt><trkpt lat="50.77525" lon="13.152958"><ele>374</ele></trkpt><trkpt lat="50.775054" lon="13.153152"><ele>378</ele></trkpt><trkpt lat="50.77478" lon="13.153387"><ele>383</ele></trkpt><trkpt lat="50.774586" lon="13.153552"><ele>388</ele></trkpt><trkpt lat="50.774337" lon="13.153739"><ele>394</ele></trkpt><trkpt lat="50.774087" lon="13.153926"><ele>399</ele></trkpt><trkpt lat="50.773939" lon="13.154032"><ele>402</ele></trkpt><trkpt lat="50.773692" lon="13.154141"><ele>407</ele></trkpt><trkpt lat="50.773537" lon="13.154183"><ele>410</ele></trkpt><trkpt lat="50.773339" lon="13.154201"><ele>414</ele></trkpt><trkpt lat="50.772939" lon="13.154193"><ele>420</ele></trkpt><trkpt lat="50.772681" lon="13.154163"><ele>424</ele></trkpt><trkpt lat="50.772422" lon="13.154132"><ele>427</ele></trkpt><trkpt lat="50.772109" lon="13.15409"><ele>430</ele></trkpt><trkpt lat="50.771703" lon="13.15407"><ele>433</ele></trkpt><trkpt lat="50.771297" lon="13.15405"><ele>436</ele></trkpt><trkpt lat="50.770961" lon="13.154041"><ele>438</ele></trkpt><trkpt lat="50.770763" lon="13.154046"><ele>439</ele></trkpt><trkpt lat="50.770763" lon="13.154046"><ele>439</ele></trkpt><trkpt lat="50.770576" lon="13.15405"><ele>440</ele></trkpt><trkpt lat="50.770443" lon="13.154088"><ele>440</ele></trkpt><trkpt lat="50.770298" lon="13.154186"><ele>440</ele></trkpt><trkpt lat="50.770011" lon="13.154359"><ele>440</ele></trkpt><trkpt lat="50.769881" lon="13.154462"><ele>439</ele></trkpt><trkpt lat="50.769642" lon="13.154777"><ele>437</ele></trkpt><trkpt lat="50.769479" lon="13.154937"><ele>436</ele></trkpt><trkpt lat="50.769345" lon="13.154647"><ele>437</ele></trkpt><trkpt lat="50.769194" lon="13.15422"><ele>439</ele></trkpt><trkpt lat="50.769093" lon="13.153882"><ele>441</ele></trkpt><trkpt lat="50.768981" lon="13.153502"><ele>443</ele></trkpt><trkpt lat="50.768908" lon="13.153233"><ele>444</ele></trkpt><trkpt lat="50.768789" lon="13.152821"><ele>448</ele></trkpt><trkpt lat="50.768666" lon="13.152402"><ele>450</ele></trkpt><trkpt lat="50.768578" lon="13.152004"><ele>451</ele></trkpt><trkpt lat="50.76854" lon="13.151832"><ele>451</ele></trkpt><trkpt lat="50.768508" lon="13.151671"><ele>451</ele></trkpt><trkpt lat="50.768406" lon="13.15116"><ele>450</ele></trkpt><trkpt lat="50.768292" lon="13.150658"><ele>449</ele></trkpt><trkpt lat="50.768237" lon="13.15073"><ele>448</ele></trkpt><trkpt lat="50.768201" lon="13.150748"><ele>448</ele></trkpt><trkpt lat="50.768202" lon="13.150748"><ele>448</ele></trkpt><trkpt lat="50.768201" lon="13.150749"><ele>448</ele></trkpt><trkpt lat="50.768148" lon="13.150777"><ele>448</ele></trkpt><trkpt lat="50.76783" lon="13.150881"><ele>444</ele></trkpt><trkpt lat="50.767695" lon="13.150947"><ele>442</ele></trkpt><trkpt lat="50.767611" lon="13.151007"><ele>441</ele></trkpt><trkpt lat="50.767511" lon="13.151115"><ele>440</ele></trkpt><trkpt lat="50.767387" lon="13.151257"><ele>438</ele></trkpt><trkpt lat="50.767291" lon="13.151382"><ele>436</ele></trkpt><trkpt lat="50.767156" lon="13.151513"><ele>433</ele></trkpt><trkpt lat="50.76711" lon="13.15155"><ele>433</ele></trkpt><trkpt lat="50.766827" lon="13.1518"><ele>430</ele></trkpt><trkpt lat="50.766543" lon="13.152051"><ele>427</ele></trkpt><trkpt lat="50.766546" lon="13.152061"><ele>427</ele></trkpt><trkpt lat="50.766639" lon="13.152392"><ele>425</ele></trkpt><trkpt lat="50.766715" lon="13.15264"><ele>423</ele></trkpt><trkpt lat="50.766785" lon="13.152809"><ele>422</ele></trkpt><trkpt lat="50.766927" lon="13.153068"><ele>421</ele></trkpt><trkpt lat="50.766974" lon="13.153129"><ele>421</ele></trkpt><trkpt lat="50.767035" lon="13.153186"><ele>420</ele></trkpt><trkpt lat="50.767047" lon="13.153197"><ele>420</ele></trkpt><trkpt lat="50.767032" lon="13.153457"><ele>419</ele></trkpt><trkpt lat="50.767033" lon="13.153908"><ele>417</ele></trkpt><trkpt lat="50.766988" lon="13.154289"><ele>414</ele></trkpt><trkpt lat="50.766994" lon="13.154541"><ele>412</ele></trkpt><trkpt lat="50.76703" lon="13.154844"><ele>411</ele></trkpt><trkpt lat="50.767087" lon="13.155232"><ele>408</ele></trkpt><trkpt lat="50.767128" lon="13.155438"><ele>406</ele></trkpt><trkpt lat="50.76715" lon="13.155547"><ele>405</ele></trkpt><trkpt lat="50.767279" lon="13.155913"><ele>403</ele></trkpt><trkpt lat="50.767423" lon="13.156347"><ele>399</ele></trkpt><trkpt lat="50.7675" lon="13.156452"><ele>397</ele></trkpt><trkpt lat="50.76764" lon="13.156645"><ele>393</ele></trkpt><trkpt lat="50.767807" lon="13.156836"><ele>390</ele></trkpt><trkpt lat="50.7679" lon="13.156906"><ele>389</ele></trkpt><trkpt lat="50.768091" lon="13.157139"><ele>387</ele></trkpt><trkpt lat="50.768092" lon="13.15714"><ele>387</ele></trkpt><trkpt lat="50.768079" lon="13.157166"><ele>387</ele></trkpt><trkpt lat="50.768084" lon="13.157173"><ele>387</ele></trkpt><trkpt lat="50.768177" lon="13.15728"><ele>386</ele></trkpt><trkpt lat="50.768225" lon="13.157366"><ele>385</ele></trkpt><trkpt lat="50.768258" lon="13.157443"><ele>385</ele></trkpt><trkpt lat="50.76829" lon="13.157632"><ele>384</ele></trkpt><trkpt lat="50.768303" lon="13.157682"><ele>384</ele></trkpt><trkpt lat="50.7685" lon="13.15788"><ele>382</ele></trkpt><trkpt lat="50.76851" lon="13.157896"><ele>382</ele></trkpt><trkpt lat="50.768531" lon="13.157928"><ele>382</ele></trkpt><trkpt lat="50.768549" lon="13.157975"><ele>381</ele></trkpt><trkpt lat="50.76856" lon="13.158014"><ele>381</ele></trkpt><trkpt lat="50.768642" lon="13.158429"><ele>379</ele></trkpt><trkpt lat="50.768654" lon="13.158587"><ele>378</ele></trkpt><trkpt lat="50.768652" lon="13.158866"><ele>376</ele></trkpt><trkpt lat="50.76864" lon="13.158966"><ele>375</ele></trkpt><trkpt lat="50.768521" lon="13.159395"><ele>370</ele></trkpt><trkpt lat="50.768492" lon="13.159516"><ele>369</ele></trkpt><trkpt lat="50.768488" lon="13.159621"><ele>368</ele></trkpt><trkpt lat="50.768501" lon="13.159794"><ele>366</ele></trkpt><trkpt lat="50.768504" lon="13.15984"><ele>366</ele></trkpt><trkpt lat="50.768537" lon="13.16029"><ele>362</ele></trkpt><trkpt lat="50.768536" lon="13.160359"><ele>361</ele></trkpt><trkpt lat="50.768523" lon="13.160426"><ele>360</ele></trkpt><trkpt lat="50.768469" lon="13.1606"><ele>358</ele></trkpt><trkpt lat="50.768451" lon="13.160639"><ele>357</ele></trkpt><trkpt lat="50.768424" lon="13.160684"><ele>356</ele></trkpt><trkpt lat="50.768385" lon="13.160772"><ele>355</ele></trkpt><trkpt lat="50.76834" lon="13.160897"><ele>353</ele></trkpt><trkpt lat="50.768323" lon="13.160956"><ele>352</ele></trkpt><trkpt lat="50.768308" lon="13.161038"><ele>352</ele></trkpt><trkpt lat="50.768303" lon="13.161118"><ele>351</ele></trkpt><trkpt lat="50.768308" lon="13.161184"><ele>350</ele></trkpt><trkpt lat="50.768321" lon="13.161253"><ele>349</ele></trkpt><trkpt lat="50.768361" lon="13.161343"><ele>349</ele></trkpt><trkpt lat="50.76845" lon="13.161544"><ele>347</ele></trkpt><trkpt lat="50.768467" lon="13.161619"><ele>346</ele></trkpt><trkpt lat="50.768478" lon="13.161716"><ele>345</ele></trkpt><trkpt lat="50.768468" lon="13.161897"><ele>344</ele></trkpt><trkpt lat="50.768461" lon="13.16202"><ele>342</ele></trkpt><trkpt lat="50.768463" lon="13.162166"><ele>340</ele></trkpt><trkpt lat="50.768471" lon="13.162279"><ele>340</ele></trkpt><trkpt lat="50.768478" lon="13.162401"><ele>340</ele></trkpt><trkpt lat="50.768477" lon="13.162432"><ele>339</ele></trkpt><trkpt lat="50.768489" lon="13.16258"><ele>338</ele></trkpt><trkpt lat="50.768494" lon="13.162779"><ele>337</ele></trkpt><trkpt lat="50.768495" lon="13.162926"><ele>334</ele></trkpt><trkpt lat="50.768462" lon="13.163437"><ele>338</ele></trkpt><trkpt lat="50.768452" lon="13.163455"><ele>338</ele></trkpt><trkpt lat="50.768409" lon="13.163567"><ele>340</ele></trkpt><trkpt lat="50.768325" lon="13.163623"><ele>340</ele></trkpt><trkpt lat="50.768241" lon="13.163663"><ele>341</ele></trkpt><trkpt lat="50.768026" lon="13.163703"><ele>340</ele></trkpt><trkpt lat="50.767941" lon="13.163751"><ele>340</ele></trkpt><trkpt lat="50.767818" lon="13.163855"><ele>341</ele></trkpt><trkpt lat="50.767519" lon="13.163981"><ele>341</ele></trkpt><trkpt lat="50.76722" lon="13.164107"><ele>341</ele></trkpt><trkpt lat="50.766935" lon="13.164266"><ele>341</ele></trkpt><trkpt lat="50.766651" lon="13.164426"><ele>341</ele></trkpt><trkpt lat="50.766387" lon="13.164569"><ele>341</ele></trkpt><trkpt lat="50.766123" lon="13.164712"><ele>340</ele></trkpt><trkpt lat="50.765797" lon="13.164977"><ele>340</ele></trkpt><trkpt lat="50.765581" lon="13.165213"><ele>342</ele></trkpt><trkpt lat="50.765288" lon="13.16556"><ele>345</ele></trkpt><trkpt lat="50.764945" lon="13.165938"><ele>346</ele></trkpt><trkpt lat="50.764706" lon="13.166269"><ele>346</ele></trkpt><trkpt lat="50.764518" lon="13.16664"><ele>347</ele></trkpt><trkpt lat="50.764376" lon="13.166911"><ele>347</ele></trkpt><trkpt lat="50.764287" lon="13.167105"><ele>347</ele></trkpt><trkpt lat="50.764222" lon="13.167293"><ele>347</ele></trkpt><trkpt lat="50.764085" lon="13.167801"><ele>347</ele></trkpt><trkpt lat="50.764012" lon="13.168112"><ele>344</ele></trkpt><trkpt lat="50.764011" lon="13.168153"><ele>344</ele></trkpt><trkpt lat="50.764022" lon="13.168189"><ele>345</ele></trkpt><trkpt lat="50.764059" lon="13.168254"><ele>347</ele></trkpt><trkpt lat="50.764095" lon="13.168318"><ele>349</ele></trkpt><trkpt lat="50.764108" lon="13.168375"><ele>350</ele></trkpt><trkpt lat="50.764094" lon="13.168462"><ele>349</ele></trkpt><trkpt lat="50.764011" lon="13.168802"><ele>343</ele></trkpt><trkpt lat="50.764005" lon="13.168912"><ele>342</ele></trkpt><trkpt lat="50.76401" lon="13.169168"><ele>343</ele></trkpt><trkpt lat="50.764018" lon="13.169527"><ele>344</ele></trkpt><trkpt lat="50.764016" lon="13.169979"><ele>345</ele></trkpt><trkpt lat="50.763978" lon="13.170294"><ele>347</ele></trkpt><trkpt lat="50.763938" lon="13.170506"><ele>346</ele></trkpt><trkpt lat="50.763902" lon="13.170641"><ele>345</ele></trkpt><trkpt lat="50.763867" lon="13.170765"><ele>345</ele></trkpt><trkpt lat="50.76379" lon="13.171006"><ele>346</ele></trkpt><trkpt lat="50.763664" lon="13.171249"><ele>348</ele></trkpt><trkpt lat="50.763506" lon="13.171469"><ele>349</ele></trkpt><trkpt lat="50.763381" lon="13.171616"><ele>350</ele></trkpt><trkpt lat="50.763254" lon="13.171746"><ele>352</ele></trkpt><trkpt lat="50.763114" lon="13.171813"><ele>352</ele></trkpt><trkpt lat="50.762971" lon="13.171836"><ele>350</ele></trkpt><trkpt lat="50.762704" lon="13.171858"><ele>349</ele></trkpt><trkpt lat="50.762441" lon="13.171844"><ele>348</ele></trkpt><trkpt lat="50.762202" lon="13.171799"><ele>346</ele></trkpt><trkpt lat="50.761964" lon="13.171755"><ele>345</ele></trkpt><trkpt lat="50.761772" lon="13.171685"><ele>345</ele></trkpt><trkpt lat="50.761587" lon="13.171631"><ele>346</ele></trkpt><trkpt lat="50.761464" lon="13.171554"><ele>346</ele></trkpt><trkpt lat="50.761393" lon="13.171474"><ele>345</ele></trkpt><trkpt lat="50.761336" lon="13.171401"><ele>344</ele></trkpt><trkpt lat="50.761333" lon="13.171397"><ele>344</ele></trkpt><trkpt lat="50.761606" lon="13.171008"><ele>345</ele></trkpt><trkpt lat="50.761592" lon="13.17099"><ele>345</ele></trkpt><trkpt lat="50.761482" lon="13.170825"><ele>345</ele></trkpt><trkpt lat="50.761457" lon="13.170776"><ele>345</ele></trkpt><trkpt lat="50.761212" lon="13.170296"><ele>344</ele></trkpt><trkpt lat="50.761104" lon="13.170083"><ele>344</ele></trkpt><trkpt lat="50.761007" lon="13.169811"><ele>344</ele></trkpt><trkpt lat="50.76096" lon="13.169654"><ele>345</ele></trkpt><trkpt lat="50.760926" lon="13.169364"><ele>348</ele></trkpt><trkpt lat="50.760801" lon="13.169012"><ele>349</ele></trkpt><trkpt lat="50.760658" lon="13.168625"><ele>350</ele></trkpt><trkpt lat="50.760619" lon="13.168521"><ele>351</ele></trkpt><trkpt lat="50.760354" lon="13.168031"><ele>350</ele></trkpt><trkpt lat="50.76028" lon="13.167826"><ele>352</ele></trkpt><trkpt lat="50.759994" lon="13.167548"><ele>347</ele></trkpt><trkpt lat="50.759684" lon="13.167258"><ele>346</ele></trkpt><trkpt lat="50.759601" lon="13.167178"><ele>347</ele></trkpt><trkpt lat="50.759577" lon="13.167155"><ele>347</ele></trkpt><trkpt lat="50.759514" lon="13.166906"><ele>350</ele></trkpt><trkpt lat="50.759322" lon="13.166541"><ele>349</ele></trkpt><trkpt lat="50.759302" lon="13.166116"><ele>353</ele></trkpt><trkpt lat="50.759307" lon="13.165754"><ele>359</ele></trkpt><trkpt lat="50.759275" lon="13.165459"><ele>362</ele></trkpt><trkpt lat="50.759174" lon="13.165213"><ele>362</ele></trkpt><trkpt lat="50.759064" lon="13.164737"><ele>362</ele></trkpt><trkpt lat="50.759041" lon="13.164431"><ele>365</ele></trkpt><trkpt lat="50.759095" lon="13.163948"><ele>376</ele></trkpt><trkpt lat="50.759078" lon="13.16376"><ele>378</ele></trkpt><trkpt lat="50.759078" lon="13.16342"><ele>384</ele></trkpt><trkpt lat="50.759068" lon="13.16312"><ele>390</ele></trkpt><trkpt lat="50.759026" lon="13.162976"><ele>391</ele></trkpt><trkpt lat="50.759022" lon="13.162964"><ele>391</ele></trkpt><trkpt lat="50.75876" lon="13.162699"><ele>390</ele></trkpt><trkpt lat="50.758564" lon="13.162493"><ele>390</ele></trkpt><trkpt lat="50.758368" lon="13.162287"><ele>391</ele></trkpt><trkpt lat="50.758251" lon="13.162228"><ele>389</ele></trkpt><trkpt lat="50.758178" lon="13.162131"><ele>390</ele></trkpt><trkpt lat="50.757998" lon="13.16192"><ele>391</ele></trkpt><trkpt lat="50.757669" lon="13.161599"><ele>392</ele></trkpt><trkpt lat="50.757465" lon="13.16128"><ele>395</ele></trkpt><trkpt lat="50.757124" lon="13.161014"><ele>394</ele></trkpt><trkpt lat="50.756813" lon="13.160916"><ele>391</ele></trkpt><trkpt lat="50.756634" lon="13.160917"><ele>389</ele></trkpt><trkpt lat="50.756513" lon="13.16094"><ele>388</ele></trkpt><trkpt lat="50.756456" lon="13.160993"><ele>387</ele></trkpt><trkpt lat="50.756404" lon="13.161052"><ele>386</ele></trkpt><trkpt lat="50.756295" lon="13.16113"><ele>385</ele></trkpt><trkpt lat="50.756115" lon="13.16119"><ele>387</ele></trkpt><trkpt lat="50.755768" lon="13.161294"><ele>390</ele></trkpt><trkpt lat="50.75565" lon="13.16131"><ele>390</ele></trkpt><trkpt lat="50.755409" lon="13.161343"><ele>392</ele></trkpt><trkpt lat="50.754978" lon="13.161456"><ele>393</ele></trkpt><trkpt lat="50.754642" lon="13.161428"><ele>393</ele></trkpt><trkpt lat="50.754428" lon="13.16132"><ele>394</ele></trkpt><trkpt lat="50.754231" lon="13.161136"><ele>396</ele></trkpt><trkpt lat="50.754033" lon="13.160953"><ele>397</ele></trkpt><trkpt lat="50.753803" lon="13.160672"><ele>400</ele></trkpt><trkpt lat="50.753739" lon="13.160573"><ele>401</ele></trkpt><trkpt lat="50.753545" lon="13.160274"><ele>404</ele></trkpt><trkpt lat="50.753434" lon="13.160102"><ele>407</ele></trkpt><trkpt lat="50.753223" lon="13.159806"><ele>409</ele></trkpt><trkpt lat="50.753013" lon="13.15951"><ele>410</ele></trkpt><trkpt lat="50.752906" lon="13.159295"><ele>410</ele></trkpt><trkpt lat="50.752901" lon="13.159233"><ele>411</ele></trkpt><trkpt lat="50.752878" lon="13.158996"><ele>412</ele></trkpt><trkpt lat="50.752875" lon="13.158707"><ele>415</ele></trkpt><trkpt lat="50.752864" lon="13.158497"><ele>416</ele></trkpt><trkpt lat="50.752769" lon="13.158132"><ele>417</ele></trkpt><trkpt lat="50.752733" lon="13.157888"><ele>418</ele></trkpt><trkpt lat="50.752723" lon="13.157701"><ele>419</ele></trkpt><trkpt lat="50.752696" lon="13.157582"><ele>420</ele></trkpt><trkpt lat="50.752646" lon="13.157498"><ele>419</ele></trkpt><trkpt lat="50.752607" lon="13.157364"><ele>419</ele></trkpt><trkpt lat="50.75258" lon="13.157166"><ele>420</ele></trkpt><trkpt lat="50.752599" lon="13.156964"><ele>422</ele></trkpt><trkpt lat="50.752598" lon="13.156959"><ele>422</ele></trkpt><trkpt lat="50.752571" lon="13.156623"><ele>424</ele></trkpt><trkpt lat="50.752497" lon="13.156102"><ele>426</ele></trkpt><trkpt lat="50.752476" lon="13.156036"><ele>426</ele></trkpt><trkpt lat="50.752462" lon="13.155992"><ele>426</ele></trkpt><trkpt lat="50.752455" lon="13.155985"><ele>426</ele></trkpt><trkpt lat="50.752423" lon="13.155974"><ele>425</ele></trkpt><trkpt lat="50.752402" lon="13.155965"><ele>425</ele></trkpt><trkpt lat="50.752382" lon="13.155916"><ele>425</ele></trkpt><trkpt lat="50.752339" lon="13.155855"><ele>424</ele></trkpt><trkpt lat="50.752296" lon="13.15582"><ele>423</ele></trkpt><trkpt lat="50.752254" lon="13.15575"><ele>423</ele></trkpt><trkpt lat="50.752223" lon="13.155663"><ele>422</ele></trkpt><trkpt lat="50.752198" lon="13.15559"><ele>422</ele></trkpt><trkpt lat="50.752178" lon="13.155506"><ele>422</ele></trkpt><trkpt lat="50.752171" lon="13.155426"><ele>422</ele></trkpt><trkpt lat="50.75216" lon="13.155326"><ele>422</ele></trkpt><trkpt lat="50.752155" lon="13.155158"><ele>423</ele></trkpt><trkpt lat="50.752165" lon="13.155041"><ele>424</ele></trkpt><trkpt lat="50.752165" lon="13.154984"><ele>424</ele></trkpt><trkpt lat="50.752247" lon="13.154773"><ele>426</ele></trkpt><trkpt lat="50.752255" lon="13.154765"><ele>426</ele></trkpt><trkpt lat="50.752499" lon="13.154529"><ele>431</ele></trkpt><trkpt lat="50.752627" lon="13.154246"><ele>434</ele></trkpt><trkpt lat="50.752655" lon="13.154179"><ele>435</ele></trkpt><trkpt lat="50.75275" lon="13.154087"><ele>437</ele></trkpt><trkpt lat="50.752867" lon="13.153862"><ele>439</ele></trkpt><trkpt lat="50.752972" lon="13.153767"><ele>441</ele></trkpt><trkpt lat="50.753163" lon="13.153376"><ele>447</ele></trkpt><trkpt lat="50.753234" lon="13.153256"><ele>449</ele></trkpt><trkpt lat="50.75332" lon="13.153248"><ele>450</ele></trkpt><trkpt lat="50.753439" lon="13.153304"><ele>451</ele></trkpt><trkpt lat="50.75368" lon="13.153525"><ele>453</ele></trkpt><trkpt lat="50.753801" lon="13.153623"><ele>454</ele></trkpt><trkpt lat="50.753872" lon="13.153678"><ele>455</ele></trkpt><trkpt lat="50.754043" lon="13.153141"><ele>459</ele></trkpt><trkpt lat="50.754215" lon="13.152559"><ele>464</ele></trkpt><trkpt lat="50.754408" lon="13.15224"><ele>466</ele></trkpt><trkpt lat="50.7546" lon="13.151921"><ele>467</ele></trkpt><trkpt lat="50.754759" lon="13.151557"><ele>468</ele></trkpt><trkpt lat="50.754917" lon="13.151193"><ele>471</ele></trkpt><trkpt lat="50.754949" lon="13.150931"><ele>473</ele></trkpt><trkpt lat="50.754895" lon="13.150604"><ele>477</ele></trkpt><trkpt lat="50.754937" lon="13.150361"><ele>479</ele></trkpt><trkpt lat="50.754935" lon="13.149964"><ele>483</ele></trkpt><trkpt lat="50.754867" lon="13.149476"><ele>488</ele></trkpt><trkpt lat="50.754898" lon="13.14929"><ele>490</ele></trkpt><trkpt lat="50.754882" lon="13.149136"><ele>492</ele></trkpt><trkpt lat="50.754837" lon="13.149032"><ele>493</ele></trkpt><trkpt lat="50.754838" lon="13.14903"><ele>493</ele></trkpt><trkpt lat="50.75507" lon="13.148784"><ele>493</ele></trkpt><trkpt lat="50.755188" lon="13.148688"><ele>493</ele></trkpt><trkpt lat="50.755071" lon="13.148551"><ele>495</ele></trkpt><trkpt lat="50.754947" lon="13.148381"><ele>498</ele></trkpt><trkpt lat="50.754865" lon="13.148153"><ele>501</ele></trkpt><trkpt lat="50.754888" lon="13.147918"><ele>503</ele></trkpt><trkpt lat="50.754944" lon="13.147708"><ele>504</ele></trkpt><trkpt lat="50.754934" lon="13.147289"><ele>508</ele></trkpt><trkpt lat="50.754889" lon="13.147119"><ele>510</ele></trkpt><trkpt lat="50.754827" lon="13.146801"><ele>514</ele></trkpt><trkpt lat="50.754823" lon="13.146584"><ele>517</ele></trkpt><trkpt lat="50.754834" lon="13.146315"><ele>519</ele></trkpt><trkpt lat="50.75495" lon="13.145974"><ele>522</ele></trkpt><trkpt lat="50.755027" lon="13.145827"><ele>524</ele></trkpt><trkpt lat="50.755121" lon="13.145655"><ele>525</ele></trkpt><trkpt lat="50.755199" lon="13.14551"><ele>526</ele></trkpt><trkpt lat="50.755373" lon="13.145295"><ele>528</ele></trkpt><trkpt lat="50.755672" lon="13.145013"><ele>530</ele></trkpt><trkpt lat="50.755783" lon="13.144884"><ele>531</ele></trkpt><trkpt lat="50.755893" lon="13.144635"><ele>533</ele></trkpt><trkpt lat="50.75606" lon="13.144251"><ele>537</ele></trkpt><trkpt lat="50.756227" lon="13.143866"><ele>540</ele></trkpt><trkpt lat="50.75624" lon="13.143584"><ele>543</ele></trkpt><trkpt lat="50.756148" lon="13.14332"><ele>546</ele></trkpt><trkpt lat="50.755981" lon="13.142822"><ele>551</ele></trkpt><trkpt lat="50.755932" lon="13.142359"><ele>553</ele></trkpt><trkpt lat="50.755931" lon="13.142351"><ele>553</ele></trkpt><trkpt lat="50.755977" lon="13.142182"><ele>553</ele></trkpt><trkpt lat="50.756093" lon="13.14196"><ele>554</ele></trkpt><trkpt lat="50.756232" lon="13.14168"><ele>555</ele></trkpt><trkpt lat="50.756405" lon="13.1414"><ele>556</ele></trkpt><trkpt lat="50.756418" lon="13.141379"><ele>556</ele></trkpt><trkpt lat="50.756526" lon="13.141088"><ele>557</ele></trkpt><trkpt lat="50.756651" lon="13.140813"><ele>558</ele></trkpt><trkpt lat="50.756762" lon="13.140584"><ele>559</ele></trkpt><trkpt lat="50.756845" lon="13.140419"><ele>560</ele></trkpt><trkpt lat="50.756968" lon="13.14016"><ele>561</ele></trkpt><trkpt lat="50.757013" lon="13.140067"><ele>561</ele></trkpt><trkpt lat="50.757128" lon="13.139835"><ele>562</ele></trkpt><trkpt lat="50.757205" lon="13.139716"><ele>563</ele></trkpt><trkpt lat="50.757248" lon="13.139653"><ele>563</ele></trkpt><trkpt lat="50.757318" lon="13.139444"><ele>564</ele></trkpt><trkpt lat="50.757418" lon="13.139147"><ele>565</ele></trkpt><trkpt lat="50.757617" lon="13.138552"><ele>567</ele></trkpt><trkpt lat="50.75775" lon="13.138219"><ele>568</ele></trkpt><trkpt lat="50.757785" lon="13.138141"><ele>568</ele></trkpt><trkpt lat="50.757975" lon="13.137832"><ele>568</ele></trkpt><trkpt lat="50.758208" lon="13.137518"><ele>568</ele></trkpt><trkpt lat="50.758425" lon="13.13733"><ele>566</ele></trkpt><trkpt lat="50.758642" lon="13.137195"><ele>565</ele></trkpt><trkpt lat="50.758727" lon="13.137143"><ele>564</ele></trkpt><trkpt lat="50.758962" lon="13.137028"><ele>562</ele></trkpt><trkpt lat="50.759242" lon="13.136896"><ele>560</ele></trkpt><trkpt lat="50.75959" lon="13.136699"><ele>557</ele></trkpt><trkpt lat="50.759647" lon="13.136666"><ele>557</ele></trkpt><trkpt lat="50.759774" lon="13.136655"><ele>556</ele></trkpt><trkpt lat="50.75987" lon="13.136324"><ele>555</ele></trkpt><trkpt lat="50.760008" lon="13.13611"><ele>554</ele></trkpt><trkpt lat="50.76015" lon="13.135819"><ele>552</ele></trkpt><trkpt lat="50.76039" lon="13.135478"><ele>550</ele></trkpt><trkpt lat="50.760486" lon="13.135322"><ele>550</ele></trkpt><trkpt lat="50.760468" lon="13.135297"><ele>550</ele></trkpt><trkpt lat="50.760454" lon="13.135277"><ele>549</ele></trkpt><trkpt lat="50.760085" lon="13.134996"><ele>549</ele></trkpt><trkpt lat="50.759717" lon="13.134716"><ele>550</ele></trkpt><trkpt lat="50.759348" lon="13.134435"><ele>551</ele></trkpt><trkpt lat="50.758947" lon="13.134308"><ele>552</ele></trkpt><trkpt lat="50.758936" lon="13.134305"><ele>552</ele></trkpt><trkpt lat="50.758549" lon="13.134219"><ele>553</ele></trkpt><trkpt lat="50.758248" lon="13.134103"><ele>553</ele></trkpt><trkpt lat="50.757807" lon="13.134012"><ele>553</ele></trkpt><trkpt lat="50.75768" lon="13.133977"><ele>553</ele></trkpt><trkpt lat="50.757464" lon="13.133818"><ele>552</ele></trkpt><trkpt lat="50.757248" lon="13.133658"><ele>551</ele></trkpt><trkpt lat="50.756976" lon="13.133288"><ele>551</ele></trkpt><trkpt lat="50.756788" lon="13.132984"><ele>551</ele></trkpt><trkpt lat="50.756718" lon="13.132507"><ele>553</ele></trkpt><trkpt lat="50.756648" lon="13.132031"><ele>554</ele></trkpt><trkpt lat="50.756589" lon="13.131617"><ele>555</ele></trkpt><trkpt lat="50.756532" lon="13.131225"><ele>556</ele></trkpt><trkpt lat="50.756529" lon="13.131203"><ele>556</ele></trkpt><trkpt lat="50.756509" lon="13.13112"><ele>557</ele></trkpt><trkpt lat="50.75641" lon="13.130759"><ele>558</ele></trkpt><trkpt lat="50.756211" lon="13.130439"><ele>557</ele></trkpt><trkpt lat="50.756152" lon="13.130314"><ele>556</ele></trkpt><trkpt lat="50.756242" lon="13.129972"><ele>557</ele></trkpt><trkpt lat="50.756332" lon="13.129629"><ele>558</ele></trkpt><trkpt lat="50.756435" lon="13.129259"><ele>559</ele></trkpt><trkpt lat="50.756538" lon="13.12889"><ele>561</ele></trkpt><trkpt lat="50.756705" lon="13.128383"><ele>563</ele></trkpt><trkpt lat="50.756793" lon="13.127907"><ele>563</ele></trkpt><trkpt lat="50.756933" lon="13.127413"><ele>561</ele></trkpt><trkpt lat="50.7571" lon="13.126988"><ele>559</ele></trkpt><trkpt lat="50.757425" lon="13.126596"><ele>557</ele></trkpt><trkpt lat="50.757499" lon="13.126421"><ele>557</ele></trkpt><trkpt lat="50.757664" lon="13.125838"><ele>554</ele></trkpt><trkpt lat="50.757754" lon="13.125463"><ele>553</ele></trkpt><trkpt lat="50.757844" lon="13.125089"><ele>551</ele></trkpt><trkpt lat="50.757916" lon="13.124798"><ele>549</ele></trkpt><trkpt lat="50.758013" lon="13.124566"><ele>548</ele></trkpt><trkpt lat="50.758297" lon="13.124142"><ele>546</ele></trkpt><trkpt lat="50.758425" lon="13.123894"><ele>544</ele></trkpt><trkpt lat="50.758553" lon="13.123615"><ele>542</ele></trkpt><trkpt lat="50.75861" lon="13.123317"><ele>540</ele></trkpt><trkpt lat="50.758756" lon="13.122877"><ele>537</ele></trkpt><trkpt lat="50.758935" lon="13.122497"><ele>535</ele></trkpt><trkpt lat="50.759098" lon="13.122103"><ele>532</ele></trkpt><trkpt lat="50.759213" lon="13.121774"><ele>529</ele></trkpt><trkpt lat="50.759329" lon="13.121446"><ele>527</ele></trkpt><trkpt lat="50.759539" lon="13.120884"><ele>523</ele></trkpt><trkpt lat="50.759578" lon="13.120607"><ele>521</ele></trkpt><trkpt lat="50.759615" lon="13.120516"><ele>520</ele></trkpt><trkpt lat="50.759612" lon="13.120502"><ele>520</ele></trkpt><trkpt lat="50.759579" lon="13.120329"><ele>518</ele></trkpt><trkpt lat="50.759571" lon="13.120204"><ele>517</ele></trkpt><trkpt lat="50.759593" lon="13.119998"><ele>516</ele></trkpt><trkpt lat="50.759619" lon="13.119804"><ele>515</ele></trkpt><trkpt lat="50.759649" lon="13.119549"><ele>513</ele></trkpt><trkpt lat="50.75965" lon="13.119171"><ele>511</ele></trkpt><trkpt lat="50.759659" lon="13.119062"><ele>510</ele></trkpt><trkpt lat="50.759676" lon="13.11896"><ele>509</ele></trkpt><trkpt lat="50.759756" lon="13.118674"><ele>507</ele></trkpt><trkpt lat="50.759842" lon="13.118442"><ele>505</ele></trkpt><trkpt lat="50.759906" lon="13.118324"><ele>504</ele></trkpt><trkpt lat="50.759984" lon="13.118228"><ele>503</ele></trkpt><trkpt lat="50.760054" lon="13.118151"><ele>503</ele></trkpt><trkpt lat="50.760143" lon="13.11809"><ele>502</ele></trkpt><trkpt lat="50.76027" lon="13.117998"><ele>501</ele></trkpt><trkpt lat="50.76047" lon="13.11783"><ele>499</ele></trkpt><trkpt lat="50.76067" lon="13.117662"><ele>497</ele></trkpt><trkpt lat="50.760863" lon="13.117475"><ele>495</ele></trkpt><trkpt lat="50.761056" lon="13.117289"><ele>494</ele></trkpt><trkpt lat="50.761327" lon="13.117055"><ele>494</ele></trkpt><trkpt lat="50.761599" lon="13.11682"><ele>493</ele></trkpt><trkpt lat="50.76187" lon="13.116586"><ele>491</ele></trkpt><trkpt lat="50.762077" lon="13.116439"><ele>490</ele></trkpt><trkpt lat="50.762306" lon="13.116297"><ele>490</ele></trkpt><trkpt lat="50.762561" lon="13.115941"><ele>488</ele></trkpt><trkpt lat="50.76267" lon="13.115757"><ele>488</ele></trkpt><trkpt lat="50.76273" lon="13.115615"><ele>488</ele></trkpt><trkpt lat="50.762781" lon="13.11546"><ele>487</ele></trkpt><trkpt lat="50.762834" lon="13.115236"><ele>487</ele></trkpt><trkpt lat="50.762873" lon="13.115"><ele>487</ele></trkpt><trkpt lat="50.762877" lon="13.11494"><ele>487</ele></trkpt><trkpt lat="50.762881" lon="13.114891"><ele>487</ele></trkpt><trkpt lat="50.762851" lon="13.114652"><ele>487</ele></trkpt><trkpt lat="50.762823" lon="13.114335"><ele>488</ele></trkpt><trkpt lat="50.762772" lon="13.113842"><ele>489</ele></trkpt><trkpt lat="50.762692" lon="13.11336"><ele>488</ele></trkpt><trkpt lat="50.762626" lon="13.113088"><ele>488</ele></trkpt><trkpt lat="50.762578" lon="13.112892"><ele>488</ele></trkpt><trkpt lat="50.762505" lon="13.112671"><ele>488</ele></trkpt><trkpt lat="50.762433" lon="13.112504"><ele>488</ele></trkpt><trkpt lat="50.76233" lon="13.112324"><ele>487</ele></trkpt><trkpt lat="50.762245" lon="13.112188"><ele>486</ele></trkpt><trkpt lat="50.762212" lon="13.112103"><ele>486</ele></trkpt><trkpt lat="50.762209" lon="13.112069"><ele>486</ele></trkpt><trkpt lat="50.762778" lon="13.109493"><ele>469</ele></trkpt><trkpt lat="50.762766" lon="13.109422"><ele>468</ele></trkpt><trkpt lat="50.762733" lon="13.109341"><ele>467</ele></trkpt><trkpt lat="50.762692" lon="13.109291"><ele>466</ele></trkpt><trkpt lat="50.762636" lon="13.109238"><ele>466</ele></trkpt><trkpt lat="50.762606" lon="13.109209"><ele>465</ele></trkpt><trkpt lat="50.762389" lon="13.109049"><ele>464</ele></trkpt><trkpt lat="50.762111" lon="13.108915"><ele>463</ele></trkpt><trkpt lat="50.761851" lon="13.108777"><ele>462</ele></trkpt><trkpt lat="50.76159" lon="13.108639"><ele>463</ele></trkpt><trkpt lat="50.761403" lon="13.108507"><ele>463</ele></trkpt><trkpt lat="50.76131" lon="13.108424"><ele>462</ele></trkpt><trkpt lat="50.761284" lon="13.108372"><ele>462</ele></trkpt><trkpt lat="50.76126" lon="13.108289"><ele>462</ele></trkpt><trkpt lat="50.761244" lon="13.1082"><ele>461</ele></trkpt><trkpt lat="50.761192" lon="13.107825"><ele>459</ele></trkpt><trkpt lat="50.761152" lon="13.107421"><ele>456</ele></trkpt><trkpt lat="50.761101" lon="13.106993"><ele>454</ele></trkpt><trkpt lat="50.761038" lon="13.106686"><ele>452</ele></trkpt><trkpt lat="50.760984" lon="13.106476"><ele>452</ele></trkpt><trkpt lat="50.760888" lon="13.106253"><ele>451</ele></trkpt><trkpt lat="50.760719" lon="13.105864"><ele>450</ele></trkpt><trkpt lat="50.760676" lon="13.105691"><ele>449</ele></trkpt><trkpt lat="50.76066" lon="13.105612"><ele>449</ele></trkpt><trkpt lat="50.760656" lon="13.105455"><ele>449</ele></trkpt><trkpt lat="50.760688" lon="13.105062"><ele>447</ele></trkpt><trkpt lat="50.760731" lon="13.104747"><ele>445</ele></trkpt><trkpt lat="50.760769" lon="13.104397"><ele>444</ele></trkpt><trkpt lat="50.76073" lon="13.104373"><ele>443</ele></trkpt><trkpt lat="50.760769" lon="13.104397"><ele>444</ele></trkpt><trkpt lat="50.760783" lon="13.104286"><ele>443</ele></trkpt><trkpt lat="50.760902" lon="13.103884"><ele>440</ele></trkpt><trkpt lat="50.760924" lon="13.103777"><ele>440</ele></trkpt><trkpt lat="50.760956" lon="13.103522"><ele>439</ele></trkpt><trkpt lat="50.760971" lon="13.103222"><ele>438</ele></trkpt><trkpt lat="50.760969" lon="13.102894"><ele>436</ele></trkpt><trkpt lat="50.760968" lon="13.102556"><ele>433</ele></trkpt><trkpt lat="50.760913" lon="13.101907"><ele>426</ele></trkpt><trkpt lat="50.760871" lon="13.1017"><ele>424</ele></trkpt><trkpt lat="50.760817" lon="13.101552"><ele>422</ele></trkpt><trkpt lat="50.760741" lon="13.101429"><ele>420</ele></trkpt><trkpt lat="50.760659" lon="13.101319"><ele>418</ele></trkpt><trkpt lat="50.760474" lon="13.101114"><ele>413</ele></trkpt><trkpt lat="50.760289" lon="13.100908"><ele>409</ele></trkpt><trkpt lat="50.760199" lon="13.100785"><ele>407</ele></trkpt><trkpt lat="50.76014" lon="13.10067"><ele>405</ele></trkpt><trkpt lat="50.760106" lon="13.100567"><ele>404</ele></trkpt><trkpt lat="50.760086" lon="13.100434"><ele>403</ele></trkpt><trkpt lat="50.760075" lon="13.100195"><ele>402</ele></trkpt><trkpt lat="50.760082" lon="13.099769"><ele>399</ele></trkpt><trkpt lat="50.760072" lon="13.099665"><ele>398</ele></trkpt><trkpt lat="50.760058" lon="13.099531"><ele>397</ele></trkpt><trkpt lat="50.76007" lon="13.099275"><ele>395</ele></trkpt><trkpt lat="50.760098" lon="13.099034"><ele>393</ele></trkpt><trkpt lat="50.760132" lon="13.098832"><ele>391</ele></trkpt><trkpt lat="50.760192" lon="13.098648"><ele>390</ele></trkpt><trkpt lat="50.760362" lon="13.098177"><ele>387</ele></trkpt><trkpt lat="50.760532" lon="13.097706"><ele>382</ele></trkpt><trkpt lat="50.760737" lon="13.097186"><ele>374</ele></trkpt><trkpt lat="50.760942" lon="13.096667"><ele>368</ele></trkpt><trkpt lat="50.760958" lon="13.09661"><ele>367</ele></trkpt><trkpt lat="50.760965" lon="13.096586"><ele>367</ele></trkpt><trkpt lat="50.760964" lon="13.096543"><ele>366</ele></trkpt><trkpt lat="50.76095" lon="13.096473"><ele>366</ele></trkpt><trkpt lat="50.76093" lon="13.096428"><ele>365</ele></trkpt><trkpt lat="50.760695" lon="13.095974"><ele>363</ele></trkpt><trkpt lat="50.760459" lon="13.09552"><ele>360</ele></trkpt><trkpt lat="50.760431" lon="13.095426"><ele>360</ele></trkpt><trkpt lat="50.760406" lon="13.095294"><ele>359</ele></trkpt><trkpt lat="50.760381" lon="13.09512"><ele>358</ele></trkpt><trkpt lat="50.760377" lon="13.094954"><ele>356</ele></trkpt><trkpt lat="50.760389" lon="13.094865"><ele>356</ele></trkpt><trkpt lat="50.760427" lon="13.094826"><ele>355</ele></trkpt><trkpt lat="50.760465" lon="13.094815"><ele>355</ele></trkpt><trkpt lat="50.760504" lon="13.094827"><ele>355</ele></trkpt><trkpt lat="50.760615" lon="13.09453"><ele>351</ele></trkpt><trkpt lat="50.760741" lon="13.094214"><ele>348</ele></trkpt><trkpt lat="50.76092" lon="13.093847"><ele>343</ele></trkpt><trkpt lat="50.760919" lon="13.093847"><ele>343</ele></trkpt><trkpt lat="50.760919" lon="13.093846"><ele>343</ele></trkpt><trkpt lat="50.76092" lon="13.093847"><ele>343</ele></trkpt><trkpt lat="50.761262" lon="13.094114"><ele>344</ele></trkpt><trkpt lat="50.761603" lon="13.094381"><ele>344</ele></trkpt><trkpt lat="50.761968" lon="13.094623"><ele>343</ele></trkpt><trkpt lat="50.762334" lon="13.094865"><ele>343</ele></trkpt><trkpt lat="50.76264" lon="13.094991"><ele>343</ele></trkpt><trkpt lat="50.762945" lon="13.095117"><ele>343</ele></trkpt><trkpt lat="50.763054" lon="13.095168"><ele>343</ele></trkpt><trkpt lat="50.763216" lon="13.095234"><ele>344</ele></trkpt><trkpt lat="50.763321" lon="13.095251"><ele>343</ele></trkpt><trkpt lat="50.763397" lon="13.095258"><ele>343</ele></trkpt><trkpt lat="50.763498" lon="13.095248"><ele>343</ele></trkpt><trkpt lat="50.763676" lon="13.095203"><ele>342</ele></trkpt><trkpt lat="50.764024" lon="13.095015"><ele>338</ele></trkpt><trkpt lat="50.76419" lon="13.094935"><ele>336</ele></trkpt><trkpt lat="50.764292" lon="13.094922"><ele>335</ele></trkpt><trkpt lat="50.764441" lon="13.09495"><ele>334</ele></trkpt><trkpt lat="50.764545" lon="13.094987"><ele>333</ele></trkpt><trkpt lat="50.764609" lon="13.095011"><ele>332</ele></trkpt><trkpt lat="50.764843" lon="13.095143"><ele>330</ele></trkpt><trkpt lat="50.764942" lon="13.095198"><ele>328</ele></trkpt><trkpt lat="50.764958" lon="13.095206"><ele>328</ele></trkpt><trkpt lat="50.765017" lon="13.095236"><ele>327</ele></trkpt><trkpt lat="50.765034" lon="13.095244"><ele>326</ele></trkpt><trkpt lat="50.765257" lon="13.095123"><ele>323</ele></trkpt><trkpt lat="50.76563" lon="13.094919"><ele>320</ele></trkpt><trkpt lat="50.765683" lon="13.094852"><ele>319</ele></trkpt><trkpt lat="50.765712" lon="13.094781"><ele>319</ele></trkpt><trkpt lat="50.765733" lon="13.094672"><ele>318</ele></trkpt><trkpt lat="50.765767" lon="13.094217"><ele>315</ele></trkpt><trkpt lat="50.7658" lon="13.093787"><ele>313</ele></trkpt><trkpt lat="50.765802" lon="13.093762"><ele>312</ele></trkpt><trkpt lat="50.76559" lon="13.09359"><ele>312</ele></trkpt><trkpt lat="50.765483" lon="13.093515"><ele>312</ele></trkpt><trkpt lat="50.765409" lon="13.093493"><ele>312</ele></trkpt><trkpt lat="50.765214" lon="13.093443"><ele>312</ele></trkpt><trkpt lat="50.765218" lon="13.093428"><ele>312</ele></trkpt><trkpt lat="50.765214" lon="13.093443"><ele>312</ele></trkpt><trkpt lat="50.765084" lon="13.09341"><ele>311</ele></trkpt><trkpt lat="50.765037" lon="13.093383"><ele>310</ele></trkpt><trkpt lat="50.764998" lon="13.093344"><ele>309</ele></trkpt><trkpt lat="50.764915" lon="13.093215"><ele>307</ele></trkpt><trkpt lat="50.764758" lon="13.092909"><ele>307</ele></trkpt><trkpt lat="50.764601" lon="13.092604"><ele>308</ele></trkpt><trkpt lat="50.764343" lon="13.092067"><ele>312</ele></trkpt><trkpt lat="50.764242" lon="13.091857"><ele>313</ele></trkpt><trkpt lat="50.764061" lon="13.091451"><ele>314</ele></trkpt><trkpt lat="50.763879" lon="13.091046"><ele>316</ele></trkpt><trkpt lat="50.763877" lon="13.091042"><ele>316</ele></trkpt><trkpt lat="50.763879" lon="13.091046"><ele>316</ele></trkpt><trkpt lat="50.763701" lon="13.09102"><ele>316</ele></trkpt><trkpt lat="50.763445" lon="13.090934"><ele>316</ele></trkpt><trkpt lat="50.763195" lon="13.09085"><ele>315</ele></trkpt></trkseg></trk>
</gpx>