<?xml version="1.0" encoding="UTF-8"?>
<gpx version="1.1" creator="gruenhainichen.com" xmlns="http://www.topografix.com/GPX/1/1">
<metadata><name>Schachwanderweg Borstendorf, Große Fernsichttour</name><desc>Die große Fernsichttour: Schachdorf-Geschichte, Flöhatal und der Borstendorfer Höhenweg mit Blick bis zur Augustusburg. Quelle: Gemeinde Grünhainichen / Verwaltungsverband Wildenstein über Outdooractive</desc><time>2026-09-24T00:00:00Z</time></metadata>
<trk><name>Schachwanderweg Borstendorf, Große Fernsichttour</name><trkseg><trkpt lat="50.774173" lon="13.163244"><ele>349</ele></trkpt><trkpt lat="50.774166" lon="13.163248"><ele>349</ele></trkpt><trkpt lat="50.774107" lon="13.163315"><ele>349</ele></trkpt><trkpt lat="50.774014" lon="13.163479"><ele>347</ele></trkpt><trkpt lat="50.774047" lon="13.163535"><ele>345</ele></trkpt><trkpt lat="50.774082" lon="13.163619"><ele>342</ele></trkpt><trkpt lat="50.774101" lon="13.163703"><ele>339</ele></trkpt><trkpt lat="50.774251" lon="13.164337"><ele>330</ele></trkpt><trkpt lat="50.774271" lon="13.164406"><ele>332</ele></trkpt><trkpt lat="50.774292" lon="13.164453"><ele>334</ele></trkpt><trkpt lat="50.774641" lon="13.164348"><ele>334</ele></trkpt><trkpt lat="50.77499" lon="13.164244"><ele>334</ele></trkpt><trkpt lat="50.77534" lon="13.164139"><ele>335</ele></trkpt><trkpt lat="50.775689" lon="13.164035"><ele>332</ele></trkpt><trkpt lat="50.77575" lon="13.16404"><ele>332</ele></trkpt><trkpt lat="50.775881" lon="13.164338"><ele>336</ele></trkpt><trkpt lat="50.776011" lon="13.164636"><ele>335</ele></trkpt><trkpt lat="50.77608" lon="13.164753"><ele>335</ele></trkpt><trkpt lat="50.776061" lon="13.164865"><ele>335</ele></trkpt><trkpt lat="50.775983" lon="13.165274"><ele>335</ele></trkpt><trkpt lat="50.775946" lon="13.165422"><ele>335</ele></trkpt><trkpt lat="50.775917" lon="13.165538"><ele>335</ele></trkpt><trkpt lat="50.77583" lon="13.16574"><ele>336</ele></trkpt><trkpt lat="50.775746" lon="13.165966"><ele>337</ele></trkpt><trkpt lat="50.775715" lon="13.166106"><ele>337</ele></trkpt><trkpt lat="50.775694" lon="13.16629"><ele>338</ele></trkpt><trkpt lat="50.775666" lon="13.166421"><ele>338</ele></trkpt><trkpt lat="50.775654" lon="13.166543"><ele>339</ele></trkpt><trkpt lat="50.775657" lon="13.166628"><ele>339</ele></trkpt><trkpt lat="50.775658" lon="13.166693"><ele>339</ele></trkpt><trkpt lat="50.775424" lon="13.167015"><ele>341</ele></trkpt><trkpt lat="50.775378" lon="13.16709"><ele>342</ele></trkpt><trkpt lat="50.775326" lon="13.167175"><ele>342</ele></trkpt><trkpt lat="50.775218" lon="13.167415"><ele>343</ele></trkpt><trkpt lat="50.77515" lon="13.167629"><ele>344</ele></trkpt><trkpt lat="50.775049" lon="13.168039"><ele>345</ele></trkpt><trkpt lat="50.77503" lon="13.168176"><ele>345</ele></trkpt><trkpt lat="50.774983" lon="13.168529"><ele>346</ele></trkpt><trkpt lat="50.774935" lon="13.168881"><ele>347</ele></trkpt><trkpt lat="50.77497" lon="13.168924"><ele>347</ele></trkpt><trkpt lat="50.775041" lon="13.169126"><ele>349</ele></trkpt><trkpt lat="50.775059" lon="13.169266"><ele>350</ele></trkpt><trkpt lat="50.775069" lon="13.169348"><ele>350</ele></trkpt><trkpt lat="50.775079" lon="13.169545"><ele>352</ele></trkpt><trkpt lat="50.775047" lon="13.169923"><ele>354</ele></trkpt><trkpt lat="50.775107" lon="13.16986"><ele>354</ele></trkpt><trkpt lat="50.775182" lon="13.169872"><ele>355</ele></trkpt><trkpt lat="50.775268" lon="13.169926"><ele>356</ele></trkpt><trkpt lat="50.775505" lon="13.170072"><ele>360</ele></trkpt><trkpt lat="50.775746" lon="13.170223"><ele>365</ele></trkpt><trkpt lat="50.77591" lon="13.170188"><ele>367</ele></trkpt><trkpt lat="50.775968" lon="13.170171"><ele>368</ele></trkpt><trkpt lat="50.776055" lon="13.17017"><ele>370</ele></trkpt><trkpt lat="50.776116" lon="13.170169"><ele>371</ele></trkpt><trkpt lat="50.776177" lon="13.170345"><ele>374</ele></trkpt><trkpt lat="50.776227" lon="13.170845"><ele>378</ele></trkpt><trkpt lat="50.776303" lon="13.171138"><ele>381</ele></trkpt><trkpt lat="50.776407" lon="13.171505"><ele>384</ele></trkpt><trkpt lat="50.77637" lon="13.171925"><ele>381</ele></trkpt><trkpt lat="50.776379" lon="13.17254"><ele>379</ele></trkpt><trkpt lat="50.776536" lon="13.173186"><ele>382</ele></trkpt><trkpt lat="50.776574" lon="13.173374"><ele>383</ele></trkpt><trkpt lat="50.776592" lon="13.173468"><ele>383</ele></trkpt><trkpt lat="50.776658" lon="13.173755"><ele>385</ele></trkpt><trkpt lat="50.776701" lon="13.17412"><ele>386</ele></trkpt><trkpt lat="50.776743" lon="13.174485"><ele>387</ele></trkpt><trkpt lat="50.77684" lon="13.174923"><ele>388</ele></trkpt><trkpt lat="50.77697" lon="13.175372"><ele>389</ele></trkpt><trkpt lat="50.777072" lon="13.175862"><ele>390</ele></trkpt><trkpt lat="50.777162" lon="13.17629"><ele>391</ele></trkpt><trkpt lat="50.777315" lon="13.176837"><ele>393</ele></trkpt><trkpt lat="50.777381" lon="13.177149"><ele>394</ele></trkpt><trkpt lat="50.777396" lon="13.177428"><ele>395</ele></trkpt><trkpt lat="50.777399" lon="13.177446"><ele>395</ele></trkpt><trkpt lat="50.777428" lon="13.177638"><ele>397</ele></trkpt><trkpt lat="50.777515" lon="13.177666"><ele>398</ele></trkpt><trkpt lat="50.777507" lon="13.177816"><ele>398</ele></trkpt><trkpt lat="50.77761" lon="13.178271"><ele>399</ele></trkpt><trkpt lat="50.777712" lon="13.178726"><ele>401</ele></trkpt><trkpt lat="50.777838" lon="13.179258"><ele>403</ele></trkpt><trkpt lat="50.777964" lon="13.179791"><ele>405</ele></trkpt><trkpt lat="50.778095" lon="13.180356"><ele>406</ele></trkpt><trkpt lat="50.778227" lon="13.180921"><ele>407</ele></trkpt><trkpt lat="50.778358" lon="13.181486"><ele>408</ele></trkpt><trkpt lat="50.778399" lon="13.181607"><ele>408</ele></trkpt><trkpt lat="50.77842" lon="13.181645"><ele>408</ele></trkpt><trkpt lat="50.778483" lon="13.181698"><ele>409</ele></trkpt><trkpt lat="50.778528" lon="13.181708"><ele>409</ele></trkpt><trkpt lat="50.778887" lon="13.181599"><ele>415</ele></trkpt><trkpt lat="50.779087" lon="13.181537"><ele>418</ele></trkpt><trkpt lat="50.779117" lon="13.181549"><ele>418</ele></trkpt><trkpt lat="50.779136" lon="13.181569"><ele>419</ele></trkpt><trkpt lat="50.77916" lon="13.18162"><ele>419</ele></trkpt><trkpt lat="50.779303" lon="13.182178"><ele>420</ele></trkpt><trkpt lat="50.779371" lon="13.18245"><ele>420</ele></trkpt><trkpt lat="50.779484" lon="13.182724"><ele>422</ele></trkpt><trkpt lat="50.779644" lon="13.183088"><ele>424</ele></trkpt><trkpt lat="50.779809" lon="13.183268"><ele>426</ele></trkpt><trkpt lat="50.780072" lon="13.183408"><ele>431</ele></trkpt><trkpt lat="50.780266" lon="13.183634"><ele>434</ele></trkpt><trkpt lat="50.780392" lon="13.183808"><ele>436</ele></trkpt><trkpt lat="50.780472" lon="13.183902"><ele>437</ele></trkpt><trkpt lat="50.780542" lon="13.184088"><ele>438</ele></trkpt><trkpt lat="50.780646" lon="13.18444"><ele>439</ele></trkpt><trkpt lat="50.780803" lon="13.184753"><ele>441</ele></trkpt><trkpt lat="50.781005" lon="13.185125"><ele>444</ele></trkpt><trkpt lat="50.781091" lon="13.185386"><ele>445</ele></trkpt><trkpt lat="50.781119" lon="13.185637"><ele>446</ele></trkpt><trkpt lat="50.781156" lon="13.185989"><ele>446</ele></trkpt><trkpt lat="50.781278" lon="13.18624"><ele>447</ele></trkpt><trkpt lat="50.781356" lon="13.186446"><ele>448</ele></trkpt><trkpt lat="50.781395" lon="13.186716"><ele>448</ele></trkpt><trkpt lat="50.781469" lon="13.187184"><ele>448</ele></trkpt><trkpt lat="50.781496" lon="13.187826"><ele>447</ele></trkpt><trkpt lat="50.781574" lon="13.188414"><ele>446</ele></trkpt><trkpt lat="50.781693" lon="13.188899"><ele>447</ele></trkpt><trkpt lat="50.781834" lon="13.189234"><ele>448</ele></trkpt><trkpt lat="50.781975" lon="13.189568"><ele>449</ele></trkpt><trkpt lat="50.782106" lon="13.189902"><ele>449</ele></trkpt><trkpt lat="50.782237" lon="13.190236"><ele>449</ele></trkpt><trkpt lat="50.782333" lon="13.190673"><ele>448</ele></trkpt><trkpt lat="50.782454" lon="13.190976"><ele>449</ele></trkpt><trkpt lat="50.782575" lon="13.191279"><ele>449</ele></trkpt><trkpt lat="50.782762" lon="13.191647"><ele>451</ele></trkpt><trkpt lat="50.782949" lon="13.192015"><ele>451</ele></trkpt><trkpt lat="50.783155" lon="13.192458"><ele>450</ele></trkpt><trkpt lat="50.78336" lon="13.192902"><ele>452</ele></trkpt><trkpt lat="50.783543" lon="13.193207"><ele>453</ele></trkpt><trkpt lat="50.783667" lon="13.193335"><ele>455</ele></trkpt><trkpt lat="50.783728" lon="13.193399"><ele>456</ele></trkpt><trkpt lat="50.783921" lon="13.194034"><ele>458</ele></trkpt><trkpt lat="50.784036" lon="13.194449"><ele>460</ele></trkpt><trkpt lat="50.784085" lon="13.194672"><ele>461</ele></trkpt><trkpt lat="50.784142" lon="13.194997"><ele>462</ele></trkpt><trkpt lat="50.784193" lon="13.195585"><ele>463</ele></trkpt><trkpt lat="50.78418" lon="13.196245"><ele>465</ele></trkpt><trkpt lat="50.784165" lon="13.19635"><ele>465</ele></trkpt><trkpt lat="50.784065" lon="13.196603"><ele>464</ele></trkpt><trkpt lat="50.784008" lon="13.196759"><ele>463</ele></trkpt><trkpt lat="50.783988" lon="13.196982"><ele>463</ele></trkpt><trkpt lat="50.784008" lon="13.197527"><ele>464</ele></trkpt><trkpt lat="50.784126" lon="13.198201"><ele>467</ele></trkpt><trkpt lat="50.784069" lon="13.198309"><ele>466</ele></trkpt><trkpt lat="50.783915" lon="13.198368"><ele>464</ele></trkpt><trkpt lat="50.783781" lon="13.198402"><ele>462</ele></trkpt><trkpt lat="50.783715" lon="13.198717"><ele>462</ele></trkpt><trkpt lat="50.783676" lon="13.199103"><ele>461</ele></trkpt><trkpt lat="50.783609" lon="13.199536"><ele>461</ele></trkpt><trkpt lat="50.783555" lon="13.199736"><ele>460</ele></trkpt><trkpt lat="50.783436" lon="13.199732"><ele>459</ele></trkpt><trkpt lat="50.783355" lon="13.199756"><ele>458</ele></trkpt><trkpt lat="50.783272" lon="13.199749"><ele>457</ele></trkpt><trkpt lat="50.783191" lon="13.199762"><ele>456</ele></trkpt><trkpt lat="50.783079" lon="13.199784"><ele>455</ele></trkpt><trkpt lat="50.782977" lon="13.199765"><ele>453</ele></trkpt><trkpt lat="50.782821" lon="13.199767"><ele>452</ele></trkpt><trkpt lat="50.7827" lon="13.199864"><ele>450</ele></trkpt><trkpt lat="50.782604" lon="13.199918"><ele>449</ele></trkpt><trkpt lat="50.782508" lon="13.200026"><ele>449</ele></trkpt><trkpt lat="50.782363" lon="13.200199"><ele>447</ele></trkpt><trkpt lat="50.782247" lon="13.20032"><ele>446</ele></trkpt><trkpt lat="50.782155" lon="13.200485"><ele>446</ele></trkpt><trkpt lat="50.782062" lon="13.200563"><ele>445</ele></trkpt><trkpt lat="50.781912" lon="13.200735"><ele>445</ele></trkpt><trkpt lat="50.78179" lon="13.200884"><ele>444</ele></trkpt><trkpt lat="50.781658" lon="13.201046"><ele>444</ele></trkpt><trkpt lat="50.781519" lon="13.201236"><ele>444</ele></trkpt><trkpt lat="50.781407" lon="13.201351"><ele>444</ele></trkpt><trkpt lat="50.781234" lon="13.201585"><ele>445</ele></trkpt><trkpt lat="50.781083" lon="13.201806"><ele>445</ele></trkpt><trkpt lat="50.780964" lon="13.20198"><ele>445</ele></trkpt><trkpt lat="50.780839" lon="13.202104"><ele>446</ele></trkpt><trkpt lat="50.780717" lon="13.202161"><ele>445</ele></trkpt><trkpt lat="50.780551" lon="13.202302"><ele>445</ele></trkpt><trkpt lat="50.780455" lon="13.202413"><ele>445</ele></trkpt><trkpt lat="50.780374" lon="13.202454"><ele>445</ele></trkpt><trkpt lat="50.780328" lon="13.202457"><ele>445</ele></trkpt><trkpt lat="50.780294" lon="13.202476"><ele>445</ele></trkpt><trkpt lat="50.780198" lon="13.202348"><ele>444</ele></trkpt><trkpt lat="50.779931" lon="13.201789"><ele>445</ele></trkpt><trkpt lat="50.779731" lon="13.201297"><ele>446</ele></trkpt><trkpt lat="50.779622" lon="13.201034"><ele>447</ele></trkpt><trkpt lat="50.779487" lon="13.20081"><ele>447</ele></trkpt><trkpt lat="50.779247" lon="13.200529"><ele>449</ele></trkpt><trkpt lat="50.778961" lon="13.200285"><ele>451</ele></trkpt><trkpt lat="50.778581" lon="13.200097"><ele>455</ele></trkpt><trkpt lat="50.778201" lon="13.199908"><ele>459</ele></trkpt><trkpt lat="50.777821" lon="13.19972"><ele>463</ele></trkpt><trkpt lat="50.777446" lon="13.199521"><ele>467</ele></trkpt><trkpt lat="50.77721" lon="13.199156"><ele>468</ele></trkpt><trkpt lat="50.777062" lon="13.198992"><ele>469</ele></trkpt><trkpt lat="50.776724" lon="13.198949"><ele>472</ele></trkpt><trkpt lat="50.776539" lon="13.198902"><ele>473</ele></trkpt><trkpt lat="50.776295" lon="13.198948"><ele>472</ele></trkpt><trkpt lat="50.77609" lon="13.198938"><ele>472</ele></trkpt><trkpt lat="50.77598" lon="13.19893"><ele>471</ele></trkpt><trkpt lat="50.775877" lon="13.198955"><ele>471</ele></trkpt><trkpt lat="50.77569" lon="13.199038"><ele>471</ele></trkpt><trkpt lat="50.775552" lon="13.199157"><ele>471</ele></trkpt><trkpt lat="50.775446" lon="13.199281"><ele>472</ele></trkpt><trkpt lat="50.775365" lon="13.199425"><ele>472</ele></trkpt><trkpt lat="50.775267" lon="13.199582"><ele>472</ele></trkpt><trkpt lat="50.775182" lon="13.199771"><ele>473</ele></trkpt><trkpt lat="50.77512" lon="13.199914"><ele>474</ele></trkpt><trkpt lat="50.775039" lon="13.200059"><ele>474</ele></trkpt><trkpt lat="50.77485" lon="13.200187"><ele>474</ele></trkpt><trkpt lat="50.774666" lon="13.20032"><ele>474</ele></trkpt><trkpt lat="50.774568" lon="13.200486"><ele>475</ele></trkpt><trkpt lat="50.774504" lon="13.200654"><ele>476</ele></trkpt><trkpt lat="50.774438" lon="13.200825"><ele>477</ele></trkpt><trkpt lat="50.774363" lon="13.200984"><ele>477</ele></trkpt><trkpt lat="50.774229" lon="13.201173"><ele>478</ele></trkpt><trkpt lat="50.774013" lon="13.201348"><ele>478</ele></trkpt><trkpt lat="50.773759" lon="13.201412"><ele>477</ele></trkpt><trkpt lat="50.773512" lon="13.201508"><ele>476</ele></trkpt><trkpt lat="50.773397" lon="13.20154"><ele>476</ele></trkpt><trkpt lat="50.773082" lon="13.201458"><ele>474</ele></trkpt><trkpt lat="50.772767" lon="13.201376"><ele>472</ele></trkpt><trkpt lat="50.772714" lon="13.201303"><ele>471</ele></trkpt><trkpt lat="50.772585" lon="13.201123"><ele>470</ele></trkpt><trkpt lat="50.772402" lon="13.20087"><ele>468</ele></trkpt><trkpt lat="50.772193" lon="13.200947"><ele>467</ele></trkpt><trkpt lat="50.772095" lon="13.201052"><ele>468</ele></trkpt><trkpt lat="50.77204" lon="13.201208"><ele>469</ele></trkpt><trkpt lat="50.771957" lon="13.201449"><ele>470</ele></trkpt><trkpt lat="50.771848" lon="13.201786"><ele>472</ele></trkpt><trkpt lat="50.771738" lon="13.202122"><ele>473</ele></trkpt><trkpt lat="50.77151" lon="13.202529"><ele>475</ele></trkpt><trkpt lat="50.771265" lon="13.20286"><ele>477</ele></trkpt><trkpt lat="50.771019" lon="13.203191"><ele>478</ele></trkpt><trkpt lat="50.770892" lon="13.203206"><ele>478</ele></trkpt><trkpt lat="50.770476" lon="13.203374"><ele>478</ele></trkpt><trkpt lat="50.770059" lon="13.203543"><ele>480</ele></trkpt><trkpt lat="50.769662" lon="13.203708"><ele>481</ele></trkpt><trkpt lat="50.769265" lon="13.203873"><ele>483</ele></trkpt><trkpt lat="50.768868" lon="13.204038"><ele>485</ele></trkpt><trkpt lat="50.768582" lon="13.204172"><ele>487</ele></trkpt><trkpt lat="50.768296" lon="13.204307"><ele>489</ele></trkpt><trkpt lat="50.767914" lon="13.204449"><ele>491</ele></trkpt><trkpt lat="50.767533" lon="13.20459"><ele>493</ele></trkpt><trkpt lat="50.767343" lon="13.204643"><ele>494</ele></trkpt><trkpt lat="50.767038" lon="13.204622"><ele>495</ele></trkpt><trkpt lat="50.766732" lon="13.204601"><ele>496</ele></trkpt><trkpt lat="50.766501" lon="13.204488"><ele>496</ele></trkpt><trkpt lat="50.766163" lon="13.204412"><ele>495</ele></trkpt><trkpt lat="50.765825" lon="13.204336"><ele>494</ele></trkpt><trkpt lat="50.765488" lon="13.204261"><ele>493</ele></trkpt><trkpt lat="50.765186" lon="13.204178"><ele>492</ele></trkpt><trkpt lat="50.764922" lon="13.204003"><ele>490</ele></trkpt><trkpt lat="50.764627" lon="13.203778"><ele>489</ele></trkpt><trkpt lat="50.76432" lon="13.203587"><ele>487</ele></trkpt><trkpt lat="50.764121" lon="13.203544"><ele>487</ele></trkpt><trkpt lat="50.763915" lon="13.203531"><ele>487</ele></trkpt><trkpt lat="50.763751" lon="13.203557"><ele>486</ele></trkpt><trkpt lat="50.763556" lon="13.203613"><ele>486</ele></trkpt><trkpt lat="50.763198" lon="13.203733"><ele>487</ele></trkpt><trkpt lat="50.763037" lon="13.203742"><ele>487</ele></trkpt><trkpt lat="50.76287" lon="13.20371"><ele>486</ele></trkpt><trkpt lat="50.762805" lon="13.203621"><ele>486</ele></trkpt><trkpt lat="50.762699" lon="13.203359"><ele>485</ele></trkpt><trkpt lat="50.762586" lon="13.203013"><ele>483</ele></trkpt><trkpt lat="50.762438" lon="13.202554"><ele>481</ele></trkpt><trkpt lat="50.762289" lon="13.202096"><ele>479</ele></trkpt><trkpt lat="50.76215" lon="13.20173"><ele>477</ele></trkpt><trkpt lat="50.761981" lon="13.201468"><ele>476</ele></trkpt><trkpt lat="50.761985" lon="13.201354"><ele>476</ele></trkpt><trkpt lat="50.762" lon="13.200802"><ele>474</ele></trkpt><trkpt lat="50.762005" lon="13.200301"><ele>472</ele></trkpt><trkpt lat="50.762141" lon="13.199761"><ele>469</ele></trkpt><trkpt lat="50.762223" lon="13.199285"><ele>467</ele></trkpt><trkpt lat="50.762305" lon="13.19881"><ele>465</ele></trkpt><trkpt lat="50.762387" lon="13.198334"><ele>463</ele></trkpt><trkpt lat="50.762477" lon="13.197789"><ele>459</ele></trkpt><trkpt lat="50.762566" lon="13.197245"><ele>456</ele></trkpt><trkpt lat="50.762638" lon="13.196816"><ele>453</ele></trkpt><trkpt lat="50.76271" lon="13.196388"><ele>451</ele></trkpt><trkpt lat="50.762747" lon="13.1961"><ele>449</ele></trkpt><trkpt lat="50.762774" lon="13.196028"><ele>449</ele></trkpt><trkpt lat="50.76286" lon="13.195789"><ele>448</ele></trkpt><trkpt lat="50.762973" lon="13.195478"><ele>448</ele></trkpt><trkpt lat="50.762997" lon="13.195016"><ele>446</ele></trkpt><trkpt lat="50.763051" lon="13.194423"><ele>446</ele></trkpt><trkpt lat="50.763087" lon="13.193997"><ele>446</ele></trkpt><trkpt lat="50.763123" lon="13.19357"><ele>446</ele></trkpt><trkpt lat="50.763077" lon="13.193276"><ele>445</ele></trkpt><trkpt lat="50.763136" lon="13.19279"><ele>446</ele></trkpt><trkpt lat="50.763194" lon="13.192303"><ele>447</ele></trkpt><trkpt lat="50.76321" lon="13.19188"><ele>446</ele></trkpt><trkpt lat="50.763226" lon="13.191456"><ele>445</ele></trkpt><trkpt lat="50.76329" lon="13.191079"><ele>444</ele></trkpt><trkpt lat="50.763354" lon="13.190701"><ele>443</ele></trkpt><trkpt lat="50.76362" lon="13.190177"><ele>445</ele></trkpt><trkpt lat="50.763885" lon="13.189652"><ele>446</ele></trkpt><trkpt lat="50.764219" lon="13.189285"><ele>447</ele></trkpt><trkpt lat="50.764553" lon="13.188918"><ele>447</ele></trkpt><trkpt lat="50.764684" lon="13.188746"><ele>446</ele></trkpt><trkpt lat="50.764795" lon="13.188523"><ele>445</ele></trkpt><trkpt lat="50.764956" lon="13.188167"><ele>444</ele></trkpt><trkpt lat="50.765116" lon="13.18781"><ele>443</ele></trkpt><trkpt lat="50.765265" lon="13.187436"><ele>442</ele></trkpt><trkpt lat="50.765414" lon="13.187061"><ele>441</ele></trkpt><trkpt lat="50.765617" lon="13.186434"><ele>438</ele></trkpt><trkpt lat="50.765724" lon="13.18628"><ele>437</ele></trkpt><trkpt lat="50.765978" lon="13.186014"><ele>435</ele></trkpt><trkpt lat="50.766367" lon="13.185709"><ele>432</ele></trkpt><trkpt lat="50.766549" lon="13.185644"><ele>431</ele></trkpt><trkpt lat="50.766617" lon="13.185558"><ele>431</ele></trkpt><trkpt lat="50.766307" lon="13.185493"><ele>432</ele></trkpt><trkpt lat="50.766022" lon="13.185594"><ele>433</ele></trkpt><trkpt lat="50.76594" lon="13.185669"><ele>433</ele></trkpt><trkpt lat="50.765835" lon="13.185676"><ele>433</ele></trkpt><trkpt lat="50.765726" lon="13.185627"><ele>433</ele></trkpt><trkpt lat="50.765648" lon="13.185446"><ele>432</ele></trkpt><trkpt lat="50.765357" lon="13.185522"><ele>431</ele></trkpt><trkpt lat="50.765235" lon="13.185556"><ele>431</ele></trkpt><trkpt lat="50.76522" lon="13.185333"><ele>430</ele></trkpt><trkpt lat="50.76517" lon="13.184831"><ele>426</ele></trkpt><trkpt lat="50.765569" lon="13.184701"><ele>428</ele></trkpt><trkpt lat="50.765881" lon="13.184604"><ele>429</ele></trkpt><trkpt lat="50.765906" lon="13.184249"><ele>428</ele></trkpt><trkpt lat="50.765899" lon="13.184118"><ele>428</ele></trkpt><trkpt lat="50.765864" lon="13.183818"><ele>428</ele></trkpt><trkpt lat="50.765862" lon="13.183635"><ele>428</ele></trkpt><trkpt lat="50.765884" lon="13.183636"><ele>428</ele></trkpt><trkpt lat="50.765862" lon="13.183635"><ele>428</ele></trkpt><trkpt lat="50.765773" lon="13.183584"><ele>428</ele></trkpt><trkpt lat="50.765656" lon="13.183489"><ele>428</ele></trkpt><trkpt lat="50.765316" lon="13.183087"><ele>428</ele></trkpt><trkpt lat="50.764977" lon="13.182707"><ele>429</ele></trkpt><trkpt lat="50.764638" lon="13.182326"><ele>429</ele></trkpt><trkpt lat="50.764299" lon="13.181945"><ele>430</ele></trkpt><trkpt lat="50.764122" lon="13.181724"><ele>431</ele></trkpt><trkpt lat="50.763945" lon="13.181503"><ele>431</ele></trkpt><trkpt lat="50.763876" lon="13.18137"><ele>430</ele></trkpt><trkpt lat="50.763829" lon="13.181223"><ele>430</ele></trkpt><trkpt lat="50.763814" lon="13.181085"><ele>429</ele></trkpt><trkpt lat="50.763841" lon="13.180852"><ele>429</ele></trkpt><trkpt lat="50.763885" lon="13.180685"><ele>428</ele></trkpt><trkpt lat="50.764076" lon="13.180086"><ele>426</ele></trkpt><trkpt lat="50.764195" lon="13.179761"><ele>424</ele></trkpt><trkpt lat="50.764238" lon="13.179613"><ele>423</ele></trkpt><trkpt lat="50.764256" lon="13.179491"><ele>422</ele></trkpt><trkpt lat="50.764249" lon="13.179409"><ele>422</ele></trkpt><trkpt lat="50.764211" lon="13.179322"><ele>420</ele></trkpt><trkpt lat="50.764207" lon="13.179319"><ele>420</ele></trkpt><trkpt lat="50.764163" lon="13.179279"><ele>420</ele></trkpt><trkpt lat="50.764084" lon="13.179276"><ele>418</ele></trkpt><trkpt lat="50.763925" lon="13.179323"><ele>417</ele></trkpt><trkpt lat="50.763502" lon="13.179452"><ele>412</ele></trkpt><trkpt lat="50.763167" lon="13.179489"><ele>408</ele></trkpt><trkpt lat="50.762962" lon="13.179378"><ele>405</ele></trkpt><trkpt lat="50.762715" lon="13.179204"><ele>402</ele></trkpt><trkpt lat="50.762458" lon="13.179101"><ele>398</ele></trkpt><trkpt lat="50.76226" lon="13.179052"><ele>396</ele></trkpt><trkpt lat="50.762104" lon="13.179056"><ele>395</ele></trkpt><trkpt lat="50.761904" lon="13.179096"><ele>393</ele></trkpt><trkpt lat="50.761699" lon="13.179143"><ele>391</ele></trkpt><trkpt lat="50.761357" lon="13.17925"><ele>389</ele></trkpt><trkpt lat="50.761033" lon="13.179346"><ele>387</ele></trkpt><trkpt lat="50.760786" lon="13.179382"><ele>385</ele></trkpt><trkpt lat="50.760621" lon="13.179343"><ele>382</ele></trkpt><trkpt lat="50.760431" lon="13.179248"><ele>379</ele></trkpt><trkpt lat="50.76001" lon="13.179005"><ele>372</ele></trkpt><trkpt lat="50.759606" lon="13.178774"><ele>367</ele></trkpt><trkpt lat="50.759396" lon="13.17876"><ele>363</ele></trkpt><trkpt lat="50.759172" lon="13.178895"><ele>359</ele></trkpt><trkpt lat="50.759093" lon="13.178986"><ele>358</ele></trkpt><trkpt lat="50.759019" lon="13.179104"><ele>357</ele></trkpt><trkpt lat="50.758932" lon="13.179272"><ele>356</ele></trkpt><trkpt lat="50.758897" lon="13.179388"><ele>356</ele></trkpt><trkpt lat="50.758866" lon="13.17964"><ele>356</ele></trkpt><trkpt lat="50.758878" lon="13.180014"><ele>357</ele></trkpt><trkpt lat="50.758871" lon="13.18013"><ele>357</ele></trkpt><trkpt lat="50.758847" lon="13.180251"><ele>357</ele></trkpt><trkpt lat="50.758811" lon="13.180326"><ele>357</ele></trkpt><trkpt lat="50.75876" lon="13.180388"><ele>356</ele></trkpt><trkpt lat="50.758704" lon="13.180411"><ele>355</ele></trkpt><trkpt lat="50.758667" lon="13.180419"><ele>355</ele></trkpt><trkpt lat="50.758655" lon="13.180422"><ele>355</ele></trkpt><trkpt lat="50.758619" lon="13.180402"><ele>354</ele></trkpt><trkpt lat="50.758586" lon="13.180369"><ele>354</ele></trkpt><trkpt lat="50.758561" lon="13.180266"><ele>354</ele></trkpt><trkpt lat="50.758546" lon="13.180135"><ele>353</ele></trkpt><trkpt lat="50.758526" lon="13.179649"><ele>353</ele></trkpt><trkpt lat="50.758528" lon="13.179408"><ele>353</ele></trkpt><trkpt lat="50.758543" lon="13.179193"><ele>352</ele></trkpt><trkpt lat="50.758578" lon="13.178596"><ele>352</ele></trkpt><trkpt lat="50.758646" lon="13.178035"><ele>351</ele></trkpt><trkpt lat="50.758689" lon="13.177678"><ele>351</ele></trkpt><trkpt lat="50.758695" lon="13.177549"><ele>350</ele></trkpt><trkpt lat="50.758667" lon="13.177387"><ele>350</ele></trkpt><trkpt lat="50.758639" lon="13.177224"><ele>349</ele></trkpt><trkpt lat="50.758625" lon="13.177164"><ele>349</ele></trkpt><trkpt lat="50.758628" lon="13.177066"><ele>349</ele></trkpt><trkpt lat="50.758652" lon="13.176976"><ele>349</ele></trkpt><trkpt lat="50.75871" lon="13.176807"><ele>349</ele></trkpt><trkpt lat="50.758895" lon="13.176357"><ele>349</ele></trkpt><trkpt lat="50.759079" lon="13.175906"><ele>349</ele></trkpt><trkpt lat="50.759264" lon="13.175456"><ele>349</ele></trkpt><trkpt lat="50.759411" lon="13.175018"><ele>349</ele></trkpt><trkpt lat="50.759557" lon="13.174581"><ele>348</ele></trkpt><trkpt lat="50.759699" lon="13.174097"><ele>347</ele></trkpt><trkpt lat="50.759818" lon="13.173699"><ele>347</ele></trkpt><trkpt lat="50.759927" lon="13.173374"><ele>346</ele></trkpt><trkpt lat="50.759982" lon="13.17321"><ele>347</ele></trkpt><trkpt lat="50.75999" lon="13.173184"><ele>347</ele></trkpt><trkpt lat="50.760058" lon="13.172972"><ele>347</ele></trkpt><trkpt lat="50.760086" lon="13.172862"><ele>347</ele></trkpt><trkpt lat="50.760106" lon="13.172699"><ele>347</ele></trkpt><trkpt lat="50.760139" lon="13.172423"><ele>347</ele></trkpt><trkpt lat="50.760173" lon="13.172281"><ele>348</ele></trkpt><trkpt lat="50.760227" lon="13.172132"><ele>348</ele></trkpt><trkpt lat="50.760314" lon="13.171892"><ele>350</ele></trkpt><trkpt lat="50.760377" lon="13.171744"><ele>351</ele></trkpt><trkpt lat="50.760426" lon="13.171623"><ele>352</ele></trkpt><trkpt lat="50.760509" lon="13.171421"><ele>351</ele></trkpt><trkpt lat="50.760542" lon="13.171298"><ele>351</ele></trkpt><trkpt lat="50.760556" lon="13.171176"><ele>350</ele></trkpt><trkpt lat="50.760559" lon="13.171027"><ele>349</ele></trkpt><trkpt lat="50.76053" lon="13.170896"><ele>349</ele></trkpt><trkpt lat="50.760486" lon="13.170788"><ele>349</ele></trkpt><trkpt lat="50.760439" lon="13.1707"><ele>349</ele></trkpt><trkpt lat="50.760391" lon="13.170641"><ele>350</ele></trkpt><trkpt lat="50.760339" lon="13.170614"><ele>350</ele></trkpt><trkpt lat="50.76012" lon="13.170298"><ele>351</ele></trkpt><trkpt lat="50.759942" lon="13.170045"><ele>352</ele></trkpt><trkpt lat="50.759905" lon="13.169968"><ele>352</ele></trkpt><trkpt lat="50.759889" lon="13.169872"><ele>352</ele></trkpt><trkpt lat="50.759895" lon="13.169787"><ele>352</ele></trkpt><trkpt lat="50.759908" lon="13.169729"><ele>351</ele></trkpt><trkpt lat="50.759935" lon="13.169675"><ele>351</ele></trkpt><trkpt lat="50.759971" lon="13.169639"><ele>350</ele></trkpt><trkpt lat="50.760032" lon="13.169603"><ele>349</ele></trkpt><trkpt lat="50.760105" lon="13.169575"><ele>348</ele></trkpt><trkpt lat="50.760339" lon="13.169588"><ele>346</ele></trkpt><trkpt lat="50.760444" lon="13.16963"><ele>344</ele></trkpt><trkpt lat="50.760511" lon="13.169726"><ele>344</ele></trkpt><trkpt lat="50.760606" lon="13.169961"><ele>344</ele></trkpt><trkpt lat="50.760832" lon="13.170572"><ele>344</ele></trkpt><trkpt lat="50.760945" lon="13.170872"><ele>344</ele></trkpt><trkpt lat="50.761085" lon="13.17115"><ele>345</ele></trkpt><trkpt lat="50.761203" lon="13.171263"><ele>344</ele></trkpt><trkpt lat="50.761321" lon="13.171352"><ele>343</ele></trkpt><trkpt lat="50.761353" lon="13.171392"><ele>343</ele></trkpt><trkpt lat="50.761393" lon="13.171474"><ele>345</ele></trkpt><trkpt lat="50.761587" lon="13.171631"><ele>346</ele></trkpt><trkpt lat="50.761772" lon="13.171685"><ele>345</ele></trkpt><trkpt lat="50.761964" lon="13.171755"><ele>345</ele></trkpt><trkpt lat="50.762202" lon="13.171799"><ele>346</ele></trkpt><trkpt lat="50.762441" lon="13.171844"><ele>348</ele></trkpt><trkpt lat="50.762704" lon="13.171858"><ele>349</ele></trkpt><trkpt lat="50.762971" lon="13.171836"><ele>350</ele></trkpt><trkpt lat="50.763114" lon="13.171813"><ele>352</ele></trkpt><trkpt lat="50.763254" lon="13.171746"><ele>352</ele></trkpt><trkpt lat="50.763381" lon="13.171616"><ele>350</ele></trkpt><trkpt lat="50.763506" lon="13.171469"><ele>349</ele></trkpt><trkpt lat="50.763664" lon="13.171249"><ele>348</ele></trkpt><trkpt lat="50.76379" lon="13.171006"><ele>346</ele></trkpt><trkpt lat="50.763867" lon="13.170765"><ele>345</ele></trkpt><trkpt lat="50.763902" lon="13.170641"><ele>345</ele></trkpt><trkpt lat="50.763938" lon="13.170506"><ele>346</ele></trkpt><trkpt lat="50.763978" lon="13.170294"><ele>347</ele></trkpt><trkpt lat="50.764016" lon="13.169979"><ele>345</ele></trkpt><trkpt lat="50.764018" lon="13.169527"><ele>344</ele></trkpt><trkpt lat="50.76401" lon="13.169168"><ele>343</ele></trkpt><trkpt lat="50.764005" lon="13.168912"><ele>342</ele></trkpt><trkpt lat="50.764011" lon="13.168802"><ele>343</ele></trkpt><trkpt lat="50.764094" lon="13.168462"><ele>349</ele></trkpt><trkpt lat="50.764108" lon="13.168375"><ele>350</ele></trkpt><trkpt lat="50.764102" lon="13.168349"><ele>350</ele></trkpt><trkpt lat="50.764108" lon="13.168375"><ele>350</ele></trkpt><trkpt lat="50.764206" lon="13.168167"><ele>355</ele></trkpt><trkpt lat="50.764317" lon="13.167964"><ele>360</ele></trkpt><trkpt lat="50.764517" lon="13.167741"><ele>368</ele></trkpt><trkpt lat="50.764812" lon="13.167475"><ele>377</ele></trkpt><trkpt lat="50.765106" lon="13.167208"><ele>380</ele></trkpt><trkpt lat="50.765207" lon="13.166885"><ele>377</ele></trkpt><trkpt lat="50.765308" lon="13.166562"><ele>373</ele></trkpt><trkpt lat="50.765647" lon="13.166422"><ele>378</ele></trkpt><trkpt lat="50.76581" lon="13.166475"><ele>379</ele></trkpt><trkpt lat="50.766025" lon="13.166344"><ele>379</ele></trkpt><trkpt lat="50.766241" lon="13.166213"><ele>378</ele></trkpt><trkpt lat="50.766411" lon="13.166599"><ele>383</ele></trkpt><trkpt lat="50.766688" lon="13.166245"><ele>378</ele></trkpt><trkpt lat="50.766966" lon="13.16589"><ele>375</ele></trkpt><trkpt lat="50.767138" lon="13.16623"><ele>380</ele></trkpt><trkpt lat="50.767309" lon="13.166569"><ele>386</ele></trkpt><trkpt lat="50.767467" lon="13.166836"><ele>392</ele></trkpt><trkpt lat="50.767625" lon="13.167103"><ele>396</ele></trkpt><trkpt lat="50.767815" lon="13.167275"><ele>400</ele></trkpt><trkpt lat="50.768208" lon="13.167107"><ele>403</ele></trkpt><trkpt lat="50.768486" lon="13.16701"><ele>405</ele></trkpt><trkpt lat="50.768774" lon="13.166972"><ele>407</ele></trkpt><trkpt lat="50.769063" lon="13.166935"><ele>410</ele></trkpt><trkpt lat="50.769424" lon="13.166803"><ele>413</ele></trkpt><trkpt lat="50.769755" lon="13.166774"><ele>414</ele></trkpt><trkpt lat="50.769972" lon="13.16701"><ele>413</ele></trkpt><trkpt lat="50.770007" lon="13.167121"><ele>414</ele></trkpt><trkpt lat="50.770047" lon="13.167246"><ele>416</ele></trkpt><trkpt lat="50.769973" lon="13.167354"><ele>417</ele></trkpt><trkpt lat="50.769955" lon="13.167414"><ele>418</ele></trkpt><trkpt lat="50.76996" lon="13.167505"><ele>419</ele></trkpt><trkpt lat="50.770044" lon="13.167778"><ele>421</ele></trkpt><trkpt lat="50.770122" lon="13.16809"><ele>423</ele></trkpt><trkpt lat="50.770156" lon="13.16824"><ele>424</ele></trkpt><trkpt lat="50.770191" lon="13.168327"><ele>425</ele></trkpt><trkpt lat="50.770234" lon="13.168362"><ele>425</ele></trkpt><trkpt lat="50.770292" lon="13.168358"><ele>425</ele></trkpt><trkpt lat="50.770461" lon="13.168326"><ele>425</ele></trkpt><trkpt lat="50.770563" lon="13.168314"><ele>425</ele></trkpt><trkpt lat="50.77064" lon="13.168319"><ele>425</ele></trkpt><trkpt lat="50.770702" lon="13.168368"><ele>425</ele></trkpt><trkpt lat="50.770737" lon="13.168458"><ele>426</ele></trkpt><trkpt lat="50.770755" lon="13.168602"><ele>427</ele></trkpt><trkpt lat="50.770749" lon="13.168836"><ele>428</ele></trkpt><trkpt lat="50.770721" lon="13.169167"><ele>430</ele></trkpt><trkpt lat="50.770699" lon="13.169528"><ele>432</ele></trkpt><trkpt lat="50.770679" lon="13.169753"><ele>432</ele></trkpt><trkpt lat="50.770652" lon="13.16993"><ele>432</ele></trkpt><trkpt lat="50.770592" lon="13.170239"><ele>432</ele></trkpt><trkpt lat="50.77058" lon="13.170417"><ele>433</ele></trkpt><trkpt lat="50.770587" lon="13.170561"><ele>434</ele></trkpt><trkpt lat="50.770567" lon="13.170718"><ele>435</ele></trkpt><trkpt lat="50.770509" lon="13.170961"><ele>435</ele></trkpt><trkpt lat="50.770456" lon="13.17126"><ele>436</ele></trkpt><trkpt lat="50.77038" lon="13.171587"><ele>437</ele></trkpt><trkpt lat="50.770346" lon="13.171834"><ele>437</ele></trkpt><trkpt lat="50.770293" lon="13.172131"><ele>438</ele></trkpt><trkpt lat="50.770207" lon="13.172487"><ele>440</ele></trkpt><trkpt lat="50.770175" lon="13.172793"><ele>443</ele></trkpt><trkpt lat="50.770157" lon="13.173163"><ele>441</ele></trkpt><trkpt lat="50.770172" lon="13.173467"><ele>440</ele></trkpt><trkpt lat="50.77021" lon="13.173636"><ele>439</ele></trkpt><trkpt lat="50.770208" lon="13.173791"><ele>440</ele></trkpt><trkpt lat="50.770153" lon="13.173928"><ele>441</ele></trkpt><trkpt lat="50.770044" lon="13.174037"><ele>443</ele></trkpt><trkpt lat="50.769828" lon="13.174148"><ele>447</ele></trkpt><trkpt lat="50.769613" lon="13.174259"><ele>451</ele></trkpt><trkpt lat="50.769412" lon="13.174423"><ele>454</ele></trkpt><trkpt lat="50.76926" lon="13.174581"><ele>456</ele></trkpt><trkpt lat="50.769206" lon="13.174763"><ele>457</ele></trkpt><trkpt lat="50.769124" lon="13.175171"><ele>458</ele></trkpt><trkpt lat="50.769091" lon="13.175547"><ele>458</ele></trkpt><trkpt lat="50.769005" lon="13.175732"><ele>458</ele></trkpt><trkpt lat="50.768887" lon="13.175815"><ele>458</ele></trkpt><trkpt lat="50.768632" lon="13.175764"><ele>459</ele></trkpt><trkpt lat="50.768361" lon="13.1757"><ele>458</ele></trkpt><trkpt lat="50.768089" lon="13.175635"><ele>458</ele></trkpt><trkpt lat="50.767747" lon="13.1756"><ele>457</ele></trkpt><trkpt lat="50.767394" lon="13.1756"><ele>457</ele></trkpt><trkpt lat="50.767207" lon="13.175678"><ele>456</ele></trkpt><trkpt lat="50.767146" lon="13.175817"><ele>456</ele></trkpt><trkpt lat="50.767105" lon="13.176106"><ele>456</ele></trkpt><trkpt lat="50.767071" lon="13.1767"><ele>456</ele></trkpt><trkpt lat="50.767007" lon="13.177307"><ele>455</ele></trkpt><trkpt lat="50.766985" lon="13.177661"><ele>454</ele></trkpt><trkpt lat="50.766964" lon="13.178015"><ele>454</ele></trkpt><trkpt lat="50.76694" lon="13.178548"><ele>454</ele></trkpt><trkpt lat="50.767012" lon="13.179063"><ele>455</ele></trkpt><trkpt lat="50.767058" lon="13.179511"><ele>453</ele></trkpt><trkpt lat="50.767055" lon="13.179845"><ele>451</ele></trkpt><trkpt lat="50.767039" lon="13.180536"><ele>446</ele></trkpt><trkpt lat="50.767023" lon="13.181226"><ele>440</ele></trkpt><trkpt lat="50.767014" lon="13.181845"><ele>434</ele></trkpt><trkpt lat="50.767005" lon="13.182463"><ele>429</ele></trkpt><trkpt lat="50.76701" lon="13.182967"><ele>425</ele></trkpt><trkpt lat="50.767015" lon="13.18347"><ele>423</ele></trkpt><trkpt lat="50.766952" lon="13.183481"><ele>424</ele></trkpt><trkpt lat="50.767015" lon="13.18347"><ele>423</ele></trkpt><trkpt lat="50.76712" lon="13.183452"><ele>422</ele></trkpt><trkpt lat="50.767248" lon="13.183447"><ele>420</ele></trkpt><trkpt lat="50.767416" lon="13.183202"><ele>420</ele></trkpt><trkpt lat="50.767558" lon="13.183042"><ele>420</ele></trkpt><trkpt lat="50.767704" lon="13.182827"><ele>420</ele></trkpt><trkpt lat="50.767912" lon="13.182595"><ele>419</ele></trkpt><trkpt lat="50.768061" lon="13.182435"><ele>419</ele></trkpt><trkpt lat="50.768235" lon="13.18227"><ele>419</ele></trkpt><trkpt lat="50.768462" lon="13.18205"><ele>419</ele></trkpt><trkpt lat="50.768673" lon="13.181873"><ele>419</ele></trkpt><trkpt lat="50.768888" lon="13.181722"><ele>419</ele></trkpt><trkpt lat="50.769078" lon="13.181612"><ele>419</ele></trkpt><trkpt lat="50.769279" lon="13.181587"><ele>418</ele></trkpt><trkpt lat="50.769455" lon="13.181551"><ele>417</ele></trkpt><trkpt lat="50.769592" lon="13.181781"><ele>414</ele></trkpt><trkpt lat="50.769693" lon="13.181871"><ele>413</ele></trkpt><trkpt lat="50.769803" lon="13.182011"><ele>411</ele></trkpt><trkpt lat="50.769859" lon="13.182061"><ele>410</ele></trkpt><trkpt lat="50.769906" lon="13.182103"><ele>409</ele></trkpt><trkpt lat="50.770021" lon="13.182167"><ele>408</ele></trkpt><trkpt lat="50.77009" lon="13.182184"><ele>407</ele></trkpt><trkpt lat="50.770166" lon="13.182156"><ele>407</ele></trkpt><trkpt lat="50.770283" lon="13.182085"><ele>406</ele></trkpt><trkpt lat="50.770391" lon="13.18202"><ele>404</ele></trkpt><trkpt lat="50.770438" lon="13.181958"><ele>404</ele></trkpt><trkpt lat="50.770493" lon="13.182208"><ele>401</ele></trkpt><trkpt lat="50.770483" lon="13.182375"><ele>400</ele></trkpt><trkpt lat="50.770473" lon="13.182526"><ele>399</ele></trkpt><trkpt lat="50.770567" lon="13.182408"><ele>398</ele></trkpt><trkpt lat="50.77079" lon="13.182084"><ele>397</ele></trkpt><trkpt lat="50.770874" lon="13.181931"><ele>396</ele></trkpt><trkpt lat="50.770943" lon="13.181753"><ele>396</ele></trkpt><trkpt lat="50.771023" lon="13.181515"><ele>396</ele></trkpt><trkpt lat="50.771116" lon="13.181172"><ele>396</ele></trkpt><trkpt lat="50.771183" lon="13.180937"><ele>396</ele></trkpt><trkpt lat="50.771254" lon="13.180727"><ele>396</ele></trkpt><trkpt lat="50.771331" lon="13.180535"><ele>396</ele></trkpt><trkpt lat="50.771383" lon="13.180439"><ele>395</ele></trkpt><trkpt lat="50.77139" lon="13.180427"><ele>395</ele></trkpt><trkpt lat="50.771439" lon="13.180354"><ele>395</ele></trkpt><trkpt lat="50.771708" lon="13.180031"><ele>392</ele></trkpt><trkpt lat="50.771844" lon="13.179848"><ele>391</ele></trkpt><trkpt lat="50.77191" lon="13.179728"><ele>390</ele></trkpt><trkpt lat="50.771984" lon="13.179557"><ele>389</ele></trkpt><trkpt lat="50.77204" lon="13.179404"><ele>389</ele></trkpt><trkpt lat="50.772073" lon="13.17922"><ele>389</ele></trkpt><trkpt lat="50.772087" lon="13.179044"><ele>389</ele></trkpt><trkpt lat="50.772106" lon="13.17884"><ele>389</ele></trkpt><trkpt lat="50.772122" lon="13.178713"><ele>389</ele></trkpt><trkpt lat="50.772152" lon="13.178622"><ele>388</ele></trkpt><trkpt lat="50.772178" lon="13.178536"><ele>388</ele></trkpt><trkpt lat="50.77222" lon="13.178444"><ele>387</ele></trkpt><trkpt lat="50.772369" lon="13.178171"><ele>386</ele></trkpt><trkpt lat="50.772468" lon="13.177968"><ele>384</ele></trkpt><trkpt lat="50.772576" lon="13.177681"><ele>384</ele></trkpt><trkpt lat="50.772658" lon="13.177731"><ele>382</ele></trkpt><trkpt lat="50.772767" lon="13.177765"><ele>382</ele></trkpt><trkpt lat="50.772904" lon="13.17774"><ele>382</ele></trkpt><trkpt lat="50.77292" lon="13.177735"><ele>382</ele></trkpt><trkpt lat="50.772904" lon="13.17774"><ele>382</ele></trkpt><trkpt lat="50.772767" lon="13.177765"><ele>382</ele></trkpt><trkpt lat="50.772658" lon="13.177731"><ele>382</ele></trkpt><trkpt lat="50.772576" lon="13.177681"><ele>384</ele></trkpt><trkpt lat="50.772646" lon="13.177401"><ele>383</ele></trkpt><trkpt lat="50.77277" lon="13.176748"><ele>383</ele></trkpt><trkpt lat="50.772855" lon="13.176351"><ele>382</ele></trkpt><trkpt lat="50.772879" lon="13.176191"><ele>381</ele></trkpt><trkpt lat="50.772901" lon="13.175979"><ele>381</ele></trkpt><trkpt lat="50.772922" lon="13.175579"><ele>381</ele></trkpt><trkpt lat="50.772937" lon="13.17545"><ele>381</ele></trkpt><trkpt lat="50.772966" lon="13.175327"><ele>381</ele></trkpt><trkpt lat="50.773028" lon="13.175195"><ele>380</ele></trkpt><trkpt lat="50.773182" lon="13.17496"><ele>377</ele></trkpt><trkpt lat="50.773241" lon="13.174845"><ele>376</ele></trkpt><trkpt lat="50.773291" lon="13.174726"><ele>376</ele></trkpt><trkpt lat="50.773327" lon="13.174593"><ele>375</ele></trkpt><trkpt lat="50.773408" lon="13.174198"><ele>374</ele></trkpt><trkpt lat="50.773452" lon="13.173936"><ele>373</ele></trkpt><trkpt lat="50.773457" lon="13.173891"><ele>373</ele></trkpt><trkpt lat="50.77348" lon="13.17371"><ele>372</ele></trkpt><trkpt lat="50.773508" lon="13.173546"><ele>372</ele></trkpt><trkpt lat="50.77361" lon="13.1731"><ele>370</ele></trkpt><trkpt lat="50.773708" lon="13.172724"><ele>369</ele></trkpt><trkpt lat="50.773796" lon="13.17243"><ele>367</ele></trkpt><trkpt lat="50.773898" lon="13.17215"><ele>366</ele></trkpt><trkpt lat="50.774012" lon="13.171842"><ele>364</ele></trkpt><trkpt lat="50.774064" lon="13.171702"><ele>363</ele></trkpt><trkpt lat="50.774121" lon="13.171532"><ele>362</ele></trkpt><trkpt lat="50.774168" lon="13.17136"><ele>361</ele></trkpt><trkpt lat="50.774205" lon="13.171178"><ele>360</ele></trkpt><trkpt lat="50.774246" lon="13.17097"><ele>360</ele></trkpt><trkpt lat="50.774284" lon="13.170719"><ele>359</ele></trkpt><trkpt lat="50.774322" lon="13.170448"><ele>359</ele></trkpt><trkpt lat="50.774325" lon="13.170436"><ele>359</ele></trkpt><trkpt lat="50.774372" lon="13.170196"><ele>358</ele></trkpt><trkpt lat="50.774513" lon="13.1696"><ele>355</ele></trkpt><trkpt lat="50.774593" lon="13.169171"><ele>353</ele></trkpt><trkpt lat="50.774673" lon="13.168743"><ele>351</ele></trkpt><trkpt lat="50.774891" lon="13.168828"><ele>347</ele></trkpt><trkpt lat="50.774935" lon="13.168881"><ele>347</ele></trkpt><trkpt lat="50.77497" lon="13.168924"><ele>347</ele></trkpt><trkpt lat="50.775041" lon="13.169126"><ele>349</ele></trkpt><trkpt lat="50.775059" lon="13.169266"><ele>350</ele></trkpt><trkpt lat="50.775041" lon="13.169126"><ele>349</ele></trkpt><trkpt lat="50.77497" lon="13.168924"><ele>347</ele></trkpt><trkpt lat="50.774935" lon="13.168881"><ele>347</ele></trkpt><trkpt lat="50.774983" lon="13.168529"><ele>346</ele></trkpt><trkpt lat="50.77503" lon="13.168176"><ele>345</ele></trkpt><trkpt lat="50.775049" lon="13.168039"><ele>345</ele></trkpt><trkpt lat="50.77515" lon="13.167629"><ele>344</ele></trkpt><trkpt lat="50.775218" lon="13.167415"><ele>343</ele></trkpt><trkpt lat="50.775326" lon="13.167175"><ele>342</ele></trkpt><trkpt lat="50.775378" lon="13.16709"><ele>342</ele></trkpt><trkpt lat="50.775424" lon="13.167015"><ele>341</ele></trkpt><trkpt lat="50.775658" lon="13.166693"><ele>339</ele></trkpt><trkpt lat="50.775657" lon="13.166628"><ele>339</ele></trkpt><trkpt lat="50.775654" lon="13.166543"><ele>339</ele></trkpt><trkpt lat="50.775666" lon="13.166421"><ele>338</ele></trkpt><trkpt lat="50.775694" lon="13.16629"><ele>338</ele></trkpt><trkpt lat="50.775715" lon="13.166106"><ele>337</ele></trkpt><trkpt lat="50.775746" lon="13.165966"><ele>337</ele></trkpt><trkpt lat="50.77583" lon="13.16574"><ele>336</ele></trkpt><trkpt lat="50.775917" lon="13.165538"><ele>335</ele></trkpt><trkpt lat="50.775983" lon="13.165274"><ele>335</ele></trkpt><trkpt lat="50.776061" lon="13.164865"><ele>335</ele></trkpt><trkpt lat="50.77608" lon="13.164753"><ele>335</ele></trkpt><trkpt lat="50.776011" lon="13.164636"><ele>335</ele></trkpt><trkpt lat="50.775881" lon="13.164338"><ele>336</ele></trkpt><trkpt lat="50.77575" lon="13.16404"><ele>332</ele></trkpt><trkpt lat="50.775689" lon="13.164035"><ele>332</ele></trkpt><trkpt lat="50.77534" lon="13.164139"><ele>335</ele></trkpt><trkpt lat="50.77499" lon="13.164244"><ele>334</ele></trkpt><trkpt lat="50.774641" lon="13.164348"><ele>334</ele></trkpt><trkpt lat="50.774292" lon="13.164453"><ele>334</ele></trkpt><trkpt lat="50.774271" lon="13.164406"><ele>332</ele></trkpt><trkpt lat="50.774251" lon="13.164337"><ele>330</ele></trkpt><trkpt lat="50.774101" lon="13.163703"><ele>339</ele></trkpt><trkpt lat="50.774082" lon="13.163619"><ele>342</ele></trkpt><trkpt lat="50.774047" lon="13.163535"><ele>345</ele></trkpt><trkpt lat="50.774014" lon="13.163479"><ele>347</ele></trkpt><trkpt lat="50.774107" lon="13.163315"><ele>349</ele></trkpt><trkpt lat="50.774166" lon="13.163248"><ele>349</ele></trkpt><trkpt lat="50.774173" lon="13.163244"><ele>349</ele></trkpt></trkseg></trk>
</gpx>