<?xml version="1.0" encoding="UTF-8"?>
<gpx version="1.1" creator="gruenhainichen.com" xmlns="http://www.topografix.com/GPX/1/1">
<metadata><name>Rundweg Grünhainichen Südschleife</name><desc>Kleine Runde ab dem Ortskern durch die Wälder südlich von Grünhainichen. Quelle: OpenStreetMap-Mitwirkende (ODbL), Höhen: EU-DEM über Open Topo Data</desc><time>2026-09-22T00:00:00Z</time></metadata>
<trk><name>Rundweg Grünhainichen Südschleife</name><trkseg><trkpt lat="50.767413" lon="13.156324"><ele>410</ele></trkpt><trkpt lat="50.767685" lon="13.156693"><ele>409</ele></trkpt><trkpt lat="50.767972" lon="13.157036"><ele>406</ele></trkpt><trkpt lat="50.768242" lon="13.157406"><ele>403</ele></trkpt><trkpt lat="50.768449" lon="13.157829"><ele>399</ele></trkpt><trkpt lat="50.768618" lon="13.158308"><ele>394</ele></trkpt><trkpt lat="50.768652" lon="13.15887"><ele>388</ele></trkpt><trkpt lat="50.768521" lon="13.159397"><ele>382</ele></trkpt><trkpt lat="50.768512" lon="13.159955"><ele>377</ele></trkpt><trkpt lat="50.768497" lon="13.160509"><ele>371</ele></trkpt><trkpt lat="50.768316" lon="13.160995"><ele>367</ele></trkpt><trkpt lat="50.768432" lon="13.161503"><ele>362</ele></trkpt><trkpt lat="50.768462" lon="13.162056"><ele>358</ele></trkpt><trkpt lat="50.768463" lon="13.16258"><ele>353</ele></trkpt><trkpt lat="50.768105" lon="13.162638"><ele>351</ele></trkpt><trkpt lat="50.767788" lon="13.162564"><ele>350</ele></trkpt><trkpt lat="50.767442" lon="13.1626"><ele>353</ele></trkpt><trkpt lat="50.76711" lon="13.162493"><ele>356</ele></trkpt><trkpt lat="50.766783" lon="13.162723"><ele>360</ele></trkpt><trkpt lat="50.766469" lon="13.163"><ele>363</ele></trkpt><trkpt lat="50.766163" lon="13.163297"><ele>364</ele></trkpt><trkpt lat="50.76585" lon="13.163576"><ele>365</ele></trkpt><trkpt lat="50.76553" lon="13.163838"><ele>366</ele></trkpt><trkpt lat="50.765211" lon="13.1641"><ele>369</ele></trkpt><trkpt lat="50.764873" lon="13.164294"><ele>371</ele></trkpt><trkpt lat="50.764541" lon="13.164502"><ele>373</ele></trkpt><trkpt lat="50.76427" lon="13.164867"><ele>375</ele></trkpt><trkpt lat="50.763974" lon="13.165184"><ele>376</ele></trkpt><trkpt lat="50.763704" lon="13.165561"><ele>377</ele></trkpt><trkpt lat="50.763474" lon="13.165997"><ele>376</ele></trkpt><trkpt lat="50.763268" lon="13.166459"><ele>373</ele></trkpt><trkpt lat="50.763129" lon="13.166983"><ele>371</ele></trkpt><trkpt lat="50.763004" lon="13.167516"><ele>369</ele></trkpt><trkpt lat="50.762904" lon="13.16806"><ele>368</ele></trkpt><trkpt lat="50.762863" lon="13.168625"><ele>366</ele></trkpt><trkpt lat="50.762729" lon="13.169144"><ele>365</ele></trkpt><trkpt lat="50.76249" lon="13.169565"><ele>365</ele></trkpt><trkpt lat="50.762214" lon="13.169926"><ele>365</ele></trkpt><trkpt lat="50.761988" lon="13.170329"><ele>363</ele></trkpt><trkpt lat="50.761678" lon="13.170614"><ele>361</ele></trkpt><trkpt lat="50.761385" lon="13.170636"><ele>360</ele></trkpt><trkpt lat="50.76116" lon="13.170193"><ele>360</ele></trkpt><trkpt lat="50.760976" lon="13.169707"><ele>361</ele></trkpt><trkpt lat="50.760859" lon="13.169176"><ele>363</ele></trkpt><trkpt lat="50.76068" lon="13.168684"><ele>364</ele></trkpt><trkpt lat="50.760466" lon="13.168228"><ele>366</ele></trkpt><trkpt lat="50.76024" lon="13.167789"><ele>367</ele></trkpt><trkpt lat="50.759941" lon="13.167476"><ele>369</ele></trkpt><trkpt lat="50.759626" lon="13.167201"><ele>369</ele></trkpt><trkpt lat="50.759415" lon="13.166751"><ele>369</ele></trkpt><trkpt lat="50.759307" lon="13.166229"><ele>371</ele></trkpt><trkpt lat="50.759297" lon="13.165663"><ele>376</ele></trkpt><trkpt lat="50.759159" lon="13.165148"><ele>381</ele></trkpt><trkpt lat="50.759054" lon="13.164607"><ele>386</ele></trkpt><trkpt lat="50.759084" lon="13.164046"><ele>390</ele></trkpt><trkpt lat="50.759078" lon="13.163481"><ele>396</ele></trkpt><trkpt lat="50.759003" lon="13.162945"><ele>400</ele></trkpt><trkpt lat="50.758701" lon="13.162637"><ele>403</ele></trkpt><trkpt lat="50.758401" lon="13.162322"><ele>403</ele></trkpt><trkpt lat="50.758096" lon="13.162035"><ele>405</ele></trkpt><trkpt lat="50.757796" lon="13.161723"><ele>407</ele></trkpt><trkpt lat="50.75752" lon="13.161365"><ele>410</ele></trkpt><trkpt lat="50.757211" lon="13.161082"><ele>411</ele></trkpt><trkpt lat="50.756867" lon="13.160933"><ele>411</ele></trkpt><trkpt lat="50.756509" lon="13.160944"><ele>409</ele></trkpt><trkpt lat="50.756183" lon="13.161167"><ele>407</ele></trkpt><trkpt lat="50.75583" lon="13.161276"><ele>407</ele></trkpt><trkpt lat="50.755473" lon="13.161335"><ele>409</ele></trkpt><trkpt lat="50.755117" lon="13.16142"><ele>411</ele></trkpt><trkpt lat="50.75476" lon="13.161438"><ele>414</ele></trkpt><trkpt lat="50.754413" lon="13.161306"><ele>418</ele></trkpt><trkpt lat="50.754103" lon="13.161018"><ele>421</ele></trkpt><trkpt lat="50.753813" lon="13.160684"><ele>424</ele></trkpt><trkpt lat="50.753554" lon="13.160288"><ele>425</ele></trkpt><trkpt lat="50.753291" lon="13.159901"><ele>425</ele></trkpt><trkpt lat="50.753022" lon="13.159523"><ele>426</ele></trkpt><trkpt lat="50.75288" lon="13.159022"><ele>430</ele></trkpt><trkpt lat="50.752853" lon="13.158458"><ele>436</ele></trkpt><trkpt lat="50.752738" lon="13.157921"><ele>440</ele></trkpt><trkpt lat="50.752618" lon="13.157402"><ele>442</ele></trkpt><trkpt lat="50.752589" lon="13.156845"><ele>442</ele></trkpt><trkpt lat="50.752523" lon="13.156287"><ele>441</ele></trkpt><trkpt lat="50.752335" lon="13.155852"><ele>441</ele></trkpt><trkpt lat="50.752166" lon="13.155377"><ele>444</ele></trkpt><trkpt lat="50.752222" lon="13.154836"><ele>448</ele></trkpt><trkpt lat="50.752509" lon="13.154507"><ele>454</ele></trkpt><trkpt lat="50.752745" lon="13.154091"><ele>459</ele></trkpt><trkpt lat="50.753002" lon="13.153705"><ele>464</ele></trkpt><trkpt lat="50.753229" lon="13.153265"><ele>467</ele></trkpt><trkpt lat="50.753562" lon="13.153416"><ele>469</ele></trkpt><trkpt lat="50.753876" lon="13.153667"><ele>470</ele></trkpt><trkpt lat="50.754037" lon="13.153159"><ele>471</ele></trkpt><trkpt lat="50.75419" lon="13.152644"><ele>471</ele></trkpt><trkpt lat="50.754422" lon="13.152216"><ele>473</ele></trkpt><trkpt lat="50.754658" lon="13.151788"><ele>476</ele></trkpt><trkpt lat="50.754862" lon="13.15132"><ele>480</ele></trkpt><trkpt lat="50.754925" lon="13.150788"><ele>486</ele></trkpt><trkpt lat="50.754936" lon="13.150235"><ele>494</ele></trkpt><trkpt lat="50.754895" lon="13.149673"><ele>502</ele></trkpt><trkpt lat="50.754875" lon="13.14912"><ele>509</ele></trkpt><trkpt lat="50.75508" lon="13.148776"><ele>514</ele></trkpt><trkpt lat="50.755001" lon="13.148454"><ele>518</ele></trkpt><trkpt lat="50.754884" lon="13.147962"><ele>523</ele></trkpt><trkpt lat="50.754937" lon="13.147411"><ele>529</ele></trkpt><trkpt lat="50.75484" lon="13.146869"><ele>534</ele></trkpt><trkpt lat="50.754838" lon="13.146305"><ele>539</ele></trkpt><trkpt lat="50.755028" lon="13.145826"><ele>544</ele></trkpt><trkpt lat="50.755275" lon="13.145416"><ele>547</ele></trkpt><trkpt lat="50.755575" lon="13.145104"><ele>548</ele></trkpt><trkpt lat="50.755845" lon="13.144742"><ele>550</ele></trkpt><trkpt lat="50.75605" lon="13.144274"><ele>553</ele></trkpt><trkpt lat="50.756231" lon="13.143793"><ele>557</ele></trkpt><trkpt lat="50.756131" lon="13.143269"><ele>560</ele></trkpt><trkpt lat="50.755974" lon="13.142761"><ele>561</ele></trkpt><trkpt lat="50.755969" lon="13.14221"><ele>562</ele></trkpt><trkpt lat="50.756191" lon="13.141764"><ele>563</ele></trkpt><trkpt lat="50.756432" lon="13.141343"><ele>564</ele></trkpt><trkpt lat="50.756627" lon="13.140866"><ele>566</ele></trkpt><trkpt lat="50.756846" lon="13.140415"><ele>569</ele></trkpt><trkpt lat="50.757064" lon="13.139963"><ele>573</ele></trkpt><trkpt lat="50.75729" lon="13.139527"><ele>576</ele></trkpt><trkpt lat="50.757459" lon="13.139025"><ele>579</ele></trkpt><trkpt lat="50.757629" lon="13.138524"><ele>581</ele></trkpt><trkpt lat="50.757835" lon="13.13806"><ele>584</ele></trkpt><trkpt lat="50.758096" lon="13.137669"><ele>583</ele></trkpt><trkpt lat="50.758394" lon="13.137357"><ele>581</ele></trkpt><trkpt lat="50.758727" lon="13.137143"><ele>579</ele></trkpt><trkpt lat="50.759071" lon="13.136977"><ele>576</ele></trkpt><trkpt lat="50.759413" lon="13.136799"><ele>572</ele></trkpt><trkpt lat="50.759758" lon="13.136656"><ele>566</ele></trkpt><trkpt lat="50.759951" lon="13.136198"><ele>561</ele></trkpt><trkpt lat="50.760185" lon="13.135769"><ele>557</ele></trkpt><trkpt lat="50.760449" lon="13.135382"><ele>554</ele></trkpt><trkpt lat="50.760717" lon="13.135006"><ele>552</ele></trkpt><trkpt lat="50.761006" lon="13.134668"><ele>551</ele></trkpt><trkpt lat="50.761217" lon="13.134224"><ele>550</ele></trkpt><trkpt lat="50.761382" lon="13.133719"><ele>549</ele></trkpt><trkpt lat="50.761558" lon="13.133412"><ele>549</ele></trkpt><trkpt lat="50.761674" lon="13.133947"><ele>550</ele></trkpt><trkpt lat="50.761782" lon="13.134489"><ele>552</ele></trkpt><trkpt lat="50.761893" lon="13.13503"><ele>553</ele></trkpt><trkpt lat="50.762003" lon="13.135571"><ele>553</ele></trkpt><trkpt lat="50.762106" lon="13.136116"><ele>553</ele></trkpt><trkpt lat="50.762208" lon="13.136662"><ele>552</ele></trkpt><trkpt lat="50.76231" lon="13.137207"><ele>551</ele></trkpt><trkpt lat="50.762416" lon="13.13775"><ele>548</ele></trkpt><trkpt lat="50.762522" lon="13.138294"><ele>546</ele></trkpt><trkpt lat="50.762629" lon="13.138837"><ele>544</ele></trkpt><trkpt lat="50.762738" lon="13.139379"><ele>540</ele></trkpt><trkpt lat="50.762848" lon="13.13992"><ele>535</ele></trkpt><trkpt lat="50.762982" lon="13.140446"><ele>528</ele></trkpt><trkpt lat="50.763225" lon="13.140861"><ele>521</ele></trkpt><trkpt lat="50.763531" lon="13.141141"><ele>514</ele></trkpt><trkpt lat="50.763876" lon="13.141292"><ele>506</ele></trkpt><trkpt lat="50.764195" lon="13.141544"><ele>498</ele></trkpt><trkpt lat="50.764504" lon="13.141833"><ele>490</ele></trkpt><trkpt lat="50.764667" lon="13.142326"><ele>484</ele></trkpt><trkpt lat="50.76473" lon="13.142858"><ele>480</ele></trkpt><trkpt lat="50.765087" lon="13.142923"><ele>477</ele></trkpt><trkpt lat="50.765174" lon="13.143426"><ele>476</ele></trkpt><trkpt lat="50.765315" lon="13.14395"><ele>475</ele></trkpt><trkpt lat="50.765476" lon="13.144458"><ele>474</ele></trkpt><trkpt lat="50.765605" lon="13.144987"><ele>473</ele></trkpt><trkpt lat="50.765653" lon="13.14555"><ele>471</ele></trkpt><trkpt lat="50.765675" lon="13.146117"><ele>469</ele></trkpt><trkpt lat="50.765699" lon="13.146685"><ele>466</ele></trkpt><trkpt lat="50.765757" lon="13.147246"><ele>463</ele></trkpt><trkpt lat="50.765825" lon="13.147804"><ele>460</ele></trkpt><trkpt lat="50.765903" lon="13.14836"><ele>456</ele></trkpt><trkpt lat="50.765906" lon="13.148915"><ele>453</ele></trkpt><trkpt lat="50.765732" lon="13.149413"><ele>450</ele></trkpt><trkpt lat="50.76567" lon="13.149957"><ele>447</ele></trkpt><trkpt lat="50.765843" lon="13.150453"><ele>444</ele></trkpt><trkpt lat="50.765884" lon="13.151015"><ele>441</ele></trkpt><trkpt lat="50.766113" lon="13.151422"><ele>439</ele></trkpt><trkpt lat="50.766419" lon="13.151716"><ele>437</ele></trkpt><trkpt lat="50.76659" lon="13.152211"><ele>436</ele></trkpt><trkpt lat="50.766748" lon="13.15272"><ele>434</ele></trkpt><trkpt lat="50.766992" lon="13.153134"><ele>432</ele></trkpt><trkpt lat="50.767046" lon="13.153657"><ele>428</ele></trkpt><trkpt lat="50.767005" lon="13.154217"><ele>423</ele></trkpt><trkpt lat="50.767029" lon="13.154778"><ele>419</ele></trkpt><trkpt lat="50.767113" lon="13.155331"><ele>416</ele></trkpt><trkpt lat="50.767251" lon="13.155852"><ele>413</ele></trkpt><trkpt lat="50.767413" lon="13.156324"><ele>412</ele></trkpt></trkseg></trk>
</gpx>