<?xml version="1.0" encoding="UTF-8"?>
<gpx version="1.1" creator="gruenhainichen.com" xmlns="http://www.topografix.com/GPX/1/1">
<metadata><name>Rundweg Waldkirchen</name><desc>Vom Bahnhof Waldkirchen hinauf auf die Höhen und durch das Zschopautal zurück. Quelle: OpenStreetMap-Mitwirkende (ODbL), Höhen: EU-DEM über Open Topo Data</desc><time>2026-09-22T00:00:00Z</time></metadata>
<trk><name>Rundweg Waldkirchen</name><trkseg><trkpt lat="50.763004" lon="13.095144"><ele>340</ele></trkpt><trkpt lat="50.763355" lon="13.095254"><ele>339</ele></trkpt><trkpt lat="50.763711" lon="13.095184"><ele>336</ele></trkpt><trkpt lat="50.764051" lon="13.095002"><ele>333</ele></trkpt><trkpt lat="50.764404" lon="13.094943"><ele>331</ele></trkpt><trkpt lat="50.76475" lon="13.09509"><ele>331</ele></trkpt><trkpt lat="50.764988" lon="13.095305"><ele>332</ele></trkpt><trkpt lat="50.764756" lon="13.095734"><ele>334</ele></trkpt><trkpt lat="50.764563" lon="13.096214"><ele>337</ele></trkpt><trkpt lat="50.764356" lon="13.096679"><ele>341</ele></trkpt><trkpt lat="50.764144" lon="13.097139"><ele>344</ele></trkpt><trkpt lat="50.763959" lon="13.097625"><ele>348</ele></trkpt><trkpt lat="50.763984" lon="13.098037"><ele>351</ele></trkpt><trkpt lat="50.764319" lon="13.098014"><ele>351</ele></trkpt><trkpt lat="50.764609" lon="13.097679"><ele>348</ele></trkpt><trkpt lat="50.764871" lon="13.09729"><ele>345</ele></trkpt><trkpt lat="50.765134" lon="13.096901"><ele>342</ele></trkpt><trkpt lat="50.765428" lon="13.096579"><ele>339</ele></trkpt><trkpt lat="50.765694" lon="13.096196"><ele>337</ele></trkpt><trkpt lat="50.76598" lon="13.095864"><ele>335</ele></trkpt><trkpt lat="50.766323" lon="13.095707"><ele>334</ele></trkpt><trkpt lat="50.766661" lon="13.095548"><ele>333</ele></trkpt><trkpt lat="50.767017" lon="13.095466"><ele>333</ele></trkpt><trkpt lat="50.767371" lon="13.09546"><ele>334</ele></trkpt><trkpt lat="50.767716" lon="13.095622"><ele>336</ele></trkpt><trkpt lat="50.768059" lon="13.095794"><ele>339</ele></trkpt><trkpt lat="50.768327" lon="13.096027"><ele>343</ele></trkpt><trkpt lat="50.768414" lon="13.096572"><ele>349</ele></trkpt><trkpt lat="50.768723" lon="13.096822"><ele>355</ele></trkpt><trkpt lat="50.769077" lon="13.096812"><ele>360</ele></trkpt><trkpt lat="50.76943" lon="13.096803"><ele>366</ele></trkpt><trkpt lat="50.769771" lon="13.096986"><ele>376</ele></trkpt><trkpt lat="50.770125" lon="13.097036"><ele>388</ele></trkpt><trkpt lat="50.77047" lon="13.09688"><ele>397</ele></trkpt><trkpt lat="50.770789" lon="13.096621"><ele>403</ele></trkpt><trkpt lat="50.77106" lon="13.096249"><ele>405</ele></trkpt><trkpt lat="50.771374" lon="13.095987"><ele>407</ele></trkpt><trkpt lat="50.771682" lon="13.095694"><ele>410</ele></trkpt><trkpt lat="50.771984" lon="13.095387"><ele>412</ele></trkpt><trkpt lat="50.772278" lon="13.095065"><ele>413</ele></trkpt><trkpt lat="50.77262" lon="13.09494"><ele>412</ele></trkpt><trkpt lat="50.772754" lon="13.095428"><ele>412</ele></trkpt><trkpt lat="50.772763" lon="13.095997"><ele>413</ele></trkpt><trkpt lat="50.77267" lon="13.096535"><ele>415</ele></trkpt><trkpt lat="50.772469" lon="13.097006"><ele>419</ele></trkpt><trkpt lat="50.772243" lon="13.097448"><ele>423</ele></trkpt><trkpt lat="50.772012" lon="13.097884"><ele>427</ele></trkpt><trkpt lat="50.771773" lon="13.098309"><ele>430</ele></trkpt><trkpt lat="50.771506" lon="13.098691"><ele>433</ele></trkpt><trkpt lat="50.771233" lon="13.099059"><ele>434</ele></trkpt><trkpt lat="50.770992" lon="13.099466"><ele>437</ele></trkpt><trkpt lat="50.770928" lon="13.100026"><ele>439</ele></trkpt><trkpt lat="50.770871" lon="13.100584"><ele>443</ele></trkpt><trkpt lat="50.770748" lon="13.101118"><ele>445</ele></trkpt><trkpt lat="50.770619" lon="13.101649"><ele>449</ele></trkpt><trkpt lat="50.770438" lon="13.102129"><ele>452</ele></trkpt><trkpt lat="50.770344" lon="13.102678"><ele>456</ele></trkpt><trkpt lat="50.770318" lon="13.103239"><ele>458</ele></trkpt><trkpt lat="50.770428" lon="13.103773"><ele>460</ele></trkpt><trkpt lat="50.770688" lon="13.104164"><ele>462</ele></trkpt><trkpt lat="50.770915" lon="13.104605"><ele>464</ele></trkpt><trkpt lat="50.7712" lon="13.10493"><ele>467</ele></trkpt><trkpt lat="50.771531" lon="13.105149"><ele>470</ele></trkpt><trkpt lat="50.771874" lon="13.10532"><ele>473</ele></trkpt><trkpt lat="50.77223" lon="13.105327"><ele>476</ele></trkpt><trkpt lat="50.772589" lon="13.105317"><ele>477</ele></trkpt><trkpt lat="50.77293" lon="13.105437"><ele>479</ele></trkpt><trkpt lat="50.773247" lon="13.105707"><ele>481</ele></trkpt><trkpt lat="50.773589" lon="13.105877"><ele>482</ele></trkpt><trkpt lat="50.773941" lon="13.105988"><ele>482</ele></trkpt><trkpt lat="50.774296" lon="13.106001"><ele>480</ele></trkpt><trkpt lat="50.77465" lon="13.105909"><ele>479</ele></trkpt><trkpt lat="50.774972" lon="13.106132"><ele>479</ele></trkpt><trkpt lat="50.775221" lon="13.106542"><ele>480</ele></trkpt><trkpt lat="50.775452" lon="13.106976"><ele>482</ele></trkpt><trkpt lat="50.775619" lon="13.107474"><ele>482</ele></trkpt><trkpt lat="50.775681" lon="13.108031"><ele>482</ele></trkpt><trkpt lat="50.775726" lon="13.108595"><ele>481</ele></trkpt><trkpt lat="50.775794" lon="13.109154"><ele>479</ele></trkpt><trkpt lat="50.775891" lon="13.109701"><ele>476</ele></trkpt><trkpt lat="50.776048" lon="13.110212"><ele>475</ele></trkpt><trkpt lat="50.776235" lon="13.110696"><ele>474</ele></trkpt><trkpt lat="50.776489" lon="13.111099"><ele>474</ele></trkpt><trkpt lat="50.776712" lon="13.111545"><ele>473</ele></trkpt><trkpt lat="50.776968" lon="13.111943"><ele>473</ele></trkpt><trkpt lat="50.777238" lon="13.112319"><ele>473</ele></trkpt><trkpt lat="50.77741" lon="13.112817"><ele>473</ele></trkpt><trkpt lat="50.777638" lon="13.113213"><ele>474</ele></trkpt><trkpt lat="50.777972" lon="13.113016"><ele>477</ele></trkpt><trkpt lat="50.778322" lon="13.11297"><ele>481</ele></trkpt><trkpt lat="50.77864" lon="13.113228"><ele>485</ele></trkpt><trkpt lat="50.778904" lon="13.11361"><ele>488</ele></trkpt><trkpt lat="50.779143" lon="13.114036"><ele>490</ele></trkpt><trkpt lat="50.779388" lon="13.114453"><ele>491</ele></trkpt><trkpt lat="50.779632" lon="13.114871"><ele>493</ele></trkpt><trkpt lat="50.779872" lon="13.115294"><ele>494</ele></trkpt><trkpt lat="50.780102" lon="13.115732"><ele>496</ele></trkpt><trkpt lat="50.7803" lon="13.116206"><ele>497</ele></trkpt><trkpt lat="50.780479" lon="13.116699"><ele>498</ele></trkpt><trkpt lat="50.780647" lon="13.117202"><ele>498</ele></trkpt><trkpt lat="50.780813" lon="13.117707"><ele>497</ele></trkpt><trkpt lat="50.780972" lon="13.118218"><ele>496</ele></trkpt><trkpt lat="50.781217" lon="13.118488"><ele>495</ele></trkpt><trkpt lat="50.781556" lon="13.118651"><ele>494</ele></trkpt><trkpt lat="50.781834" lon="13.119011"><ele>492</ele></trkpt><trkpt lat="50.781577" lon="13.119235"><ele>490</ele></trkpt><trkpt lat="50.781373" lon="13.119607"><ele>486</ele></trkpt><trkpt lat="50.781487" lon="13.120147"><ele>482</ele></trkpt><trkpt lat="50.78155" lon="13.120706"><ele>478</ele></trkpt><trkpt lat="50.781592" lon="13.121271"><ele>474</ele></trkpt><trkpt lat="50.781634" lon="13.121836"><ele>471</ele></trkpt><trkpt lat="50.781709" lon="13.122392"><ele>467</ele></trkpt><trkpt lat="50.78179" lon="13.122946"><ele>464</ele></trkpt><trkpt lat="50.781854" lon="13.123505"><ele>460</ele></trkpt><trkpt lat="50.78188" lon="13.124072"><ele>457</ele></trkpt><trkpt lat="50.781907" lon="13.12464"><ele>454</ele></trkpt><trkpt lat="50.781934" lon="13.125207"><ele>451</ele></trkpt><trkpt lat="50.781963" lon="13.125774"><ele>450</ele></trkpt><trkpt lat="50.782" lon="13.12634"><ele>449</ele></trkpt><trkpt lat="50.782037" lon="13.126906"><ele>448</ele></trkpt><trkpt lat="50.782075" lon="13.127472"><ele>447</ele></trkpt><trkpt lat="50.782112" lon="13.128038"><ele>446</ele></trkpt><trkpt lat="50.782025" lon="13.128413"><ele>447</ele></trkpt><trkpt lat="50.781672" lon="13.128307"><ele>449</ele></trkpt><trkpt lat="50.781319" lon="13.128195"><ele>452</ele></trkpt><trkpt lat="50.780964" lon="13.128111"><ele>454</ele></trkpt><trkpt lat="50.780605" lon="13.128111"><ele>458</ele></trkpt><trkpt lat="50.780245" lon="13.128126"><ele>462</ele></trkpt><trkpt lat="50.779885" lon="13.128121"><ele>467</ele></trkpt><trkpt lat="50.779526" lon="13.128112"><ele>472</ele></trkpt><trkpt lat="50.779172" lon="13.128024"><ele>477</ele></trkpt><trkpt lat="50.778823" lon="13.127967"><ele>481</ele></trkpt><trkpt lat="50.778492" lon="13.12818"><ele>483</ele></trkpt><trkpt lat="50.778176" lon="13.12845"><ele>486</ele></trkpt><trkpt lat="50.77784" lon="13.128649"><ele>490</ele></trkpt><trkpt lat="50.777484" lon="13.128697"><ele>497</ele></trkpt><trkpt lat="50.777127" lon="13.128719"><ele>504</ele></trkpt><trkpt lat="50.776776" lon="13.128844"><ele>509</ele></trkpt><trkpt lat="50.776431" lon="13.129003"><ele>512</ele></trkpt><trkpt lat="50.776114" lon="13.129259"><ele>514</ele></trkpt><trkpt lat="50.775824" lon="13.129595"><ele>516</ele></trkpt><trkpt lat="50.775532" lon="13.12992"><ele>516</ele></trkpt><trkpt lat="50.775269" lon="13.130285"><ele>516</ele></trkpt><trkpt lat="50.774978" lon="13.130619"><ele>515</ele></trkpt><trkpt lat="50.774683" lon="13.130945"><ele>515</ele></trkpt><trkpt lat="50.77439" lon="13.131273"><ele>516</ele></trkpt><trkpt lat="50.774043" lon="13.131397"><ele>518</ele></trkpt><trkpt lat="50.773686" lon="13.131465"><ele>521</ele></trkpt><trkpt lat="50.773328" lon="13.131526"><ele>522</ele></trkpt><trkpt lat="50.772991" lon="13.131722"><ele>520</ele></trkpt><trkpt lat="50.772657" lon="13.13193"><ele>518</ele></trkpt><trkpt lat="50.772322" lon="13.132138"><ele>516</ele></trkpt><trkpt lat="50.771987" lon="13.132347"><ele>514</ele></trkpt><trkpt lat="50.771653" lon="13.132558"><ele>512</ele></trkpt><trkpt lat="50.771331" lon="13.132811"><ele>510</ele></trkpt><trkpt lat="50.771009" lon="13.133064"><ele>509</ele></trkpt><trkpt lat="50.770687" lon="13.133318"><ele>509</ele></trkpt><trkpt lat="50.77035" lon="13.133493"><ele>512</ele></trkpt><trkpt lat="50.770034" lon="13.133259"><ele>516</ele></trkpt><trkpt lat="50.769757" lon="13.132897"><ele>522</ele></trkpt><trkpt lat="50.769479" lon="13.132536"><ele>526</ele></trkpt><trkpt lat="50.769201" lon="13.132176"><ele>527</ele></trkpt><trkpt lat="50.768921" lon="13.131819"><ele>528</ele></trkpt><trkpt lat="50.768641" lon="13.131461"><ele>528</ele></trkpt><trkpt lat="50.768355" lon="13.131116"><ele>529</ele></trkpt><trkpt lat="50.768064" lon="13.130782"><ele>532</ele></trkpt><trkpt lat="50.767773" lon="13.130447"><ele>534</ele></trkpt><trkpt lat="50.767482" lon="13.130113"><ele>535</ele></trkpt><trkpt lat="50.767209" lon="13.130031"><ele>535</ele></trkpt><trkpt lat="50.766903" lon="13.13033"><ele>534</ele></trkpt><trkpt lat="50.766596" lon="13.130628"><ele>531</ele></trkpt><trkpt lat="50.766277" lon="13.130888"><ele>527</ele></trkpt><trkpt lat="50.765938" lon="13.131035"><ele>524</ele></trkpt><trkpt lat="50.7656" lon="13.130925"><ele>520</ele></trkpt><trkpt lat="50.765259" lon="13.130971"><ele>517</ele></trkpt><trkpt lat="50.764947" lon="13.131189"><ele>516</ele></trkpt><trkpt lat="50.764641" lon="13.131394"><ele>518</ele></trkpt><trkpt lat="50.764343" lon="13.131692"><ele>523</ele></trkpt><trkpt lat="50.763995" lon="13.131834"><ele>530</ele></trkpt><trkpt lat="50.76365" lon="13.131995"><ele>539</ele></trkpt><trkpt lat="50.763334" lon="13.132254"><ele>547</ele></trkpt><trkpt lat="50.762979" lon="13.132323"><ele>553</ele></trkpt><trkpt lat="50.762638" lon="13.132445"><ele>555</ele></trkpt><trkpt lat="50.762329" lon="13.13273"><ele>554</ele></trkpt><trkpt lat="50.76198" lon="13.132869"><ele>552</ele></trkpt><trkpt lat="50.761633" lon="13.133014"><ele>550</ele></trkpt><trkpt lat="50.761456" lon="13.13349"><ele>549</ele></trkpt><trkpt lat="50.761292" lon="13.133996"><ele>549</ele></trkpt><trkpt lat="50.761126" lon="13.1345"><ele>550</ele></trkpt><trkpt lat="50.760847" lon="13.134853"><ele>552</ele></trkpt><trkpt lat="50.760562" lon="13.135198"><ele>553</ele></trkpt><trkpt lat="50.760267" lon="13.135134"><ele>553</ele></trkpt><trkpt lat="50.759942" lon="13.134887"><ele>553</ele></trkpt><trkpt lat="50.759618" lon="13.134641"><ele>554</ele></trkpt><trkpt lat="50.75929" lon="13.134416"><ele>555</ele></trkpt><trkpt lat="50.758937" lon="13.134305"><ele>555</ele></trkpt><trkpt lat="50.758581" lon="13.134226"><ele>556</ele></trkpt><trkpt lat="50.75823" lon="13.134099"><ele>555</ele></trkpt><trkpt lat="50.757873" lon="13.134026"><ele>554</ele></trkpt><trkpt lat="50.757531" lon="13.133868"><ele>553</ele></trkpt><trkpt lat="50.757212" lon="13.13361"><ele>552</ele></trkpt><trkpt lat="50.756943" lon="13.133234"><ele>552</ele></trkpt><trkpt lat="50.756757" lon="13.132771"><ele>552</ele></trkpt><trkpt lat="50.756676" lon="13.132217"><ele>553</ele></trkpt><trkpt lat="50.756595" lon="13.131663"><ele>554</ele></trkpt><trkpt lat="50.756506" lon="13.131112"><ele>555</ele></trkpt><trkpt lat="50.756329" lon="13.130628"><ele>555</ele></trkpt><trkpt lat="50.756188" lon="13.130178"><ele>557</ele></trkpt><trkpt lat="50.756326" lon="13.129652"><ele>558</ele></trkpt><trkpt lat="50.75647" lon="13.129131"><ele>560</ele></trkpt><trkpt lat="50.756627" lon="13.12862"><ele>561</ele></trkpt><trkpt lat="50.756758" lon="13.128093"><ele>561</ele></trkpt><trkpt lat="50.75689" lon="13.127566"><ele>560</ele></trkpt><trkpt lat="50.757067" lon="13.127072"><ele>560</ele></trkpt><trkpt lat="50.757336" lon="13.126703"><ele>558</ele></trkpt><trkpt lat="50.757546" lon="13.126255"><ele>557</ele></trkpt><trkpt lat="50.757689" lon="13.125734"><ele>554</ele></trkpt><trkpt lat="50.757816" lon="13.125202"><ele>551</ele></trkpt><trkpt lat="50.757963" lon="13.124685"><ele>548</ele></trkpt><trkpt lat="50.758209" lon="13.124274"><ele>546</ele></trkpt><trkpt lat="50.758446" lon="13.123848"><ele>543</ele></trkpt><trkpt lat="50.758604" lon="13.123346"><ele>540</ele></trkpt><trkpt lat="50.758771" lon="13.122844"><ele>537</ele></trkpt><trkpt lat="50.758982" lon="13.122383"><ele>533</ele></trkpt><trkpt lat="50.759169" lon="13.121899"><ele>530</ele></trkpt><trkpt lat="50.759345" lon="13.121402"><ele>527</ele></trkpt><trkpt lat="50.759528" lon="13.120913"><ele>523</ele></trkpt><trkpt lat="50.759589" lon="13.120379"><ele>520</ele></trkpt><trkpt lat="50.759617" lon="13.11982"><ele>515</ele></trkpt><trkpt lat="50.75965" lon="13.119256"><ele>511</ele></trkpt><trkpt lat="50.759744" lon="13.118715"><ele>507</ele></trkpt><trkpt lat="50.759955" lon="13.118263"><ele>503</ele></trkpt><trkpt lat="50.760271" lon="13.117997"><ele>500</ele></trkpt><trkpt lat="50.760589" lon="13.11773"><ele>498</ele></trkpt><trkpt lat="50.760899" lon="13.117441"><ele>495</ele></trkpt><trkpt lat="50.76121" lon="13.117156"><ele>493</ele></trkpt><trkpt lat="50.761526" lon="13.116883"><ele>492</ele></trkpt><trkpt lat="50.761841" lon="13.116611"><ele>491</ele></trkpt><trkpt lat="50.76217" lon="13.116381"><ele>490</ele></trkpt><trkpt lat="50.762466" lon="13.116073"><ele>488</ele></trkpt><trkpt lat="50.762711" lon="13.11566"><ele>487</ele></trkpt><trkpt lat="50.76285" lon="13.115138"><ele>487</ele></trkpt><trkpt lat="50.762845" lon="13.11458"><ele>486</ele></trkpt><trkpt lat="50.76279" lon="13.114018"><ele>486</ele></trkpt><trkpt lat="50.762709" lon="13.113465"><ele>485</ele></trkpt><trkpt lat="50.762587" lon="13.11293"><ele>484</ele></trkpt><trkpt lat="50.7624" lon="13.112448"><ele>484</ele></trkpt><trkpt lat="50.762213" lon="13.111993"><ele>483</ele></trkpt><trkpt lat="50.762316" lon="13.111449"><ele>481</ele></trkpt><trkpt lat="50.76246" lon="13.110928"><ele>477</ele></trkpt><trkpt lat="50.762582" lon="13.110394"><ele>473</ele></trkpt><trkpt lat="50.76269" lon="13.109851"><ele>468</ele></trkpt><trkpt lat="50.762727" lon="13.109334"><ele>464</ele></trkpt><trkpt lat="50.762411" lon="13.109065"><ele>464</ele></trkpt><trkpt lat="50.762068" lon="13.108893"><ele>464</ele></trkpt><trkpt lat="50.761727" lon="13.108712"><ele>464</ele></trkpt><trkpt lat="50.761394" lon="13.108499"><ele>463</ele></trkpt><trkpt lat="50.761222" lon="13.108039"><ele>461</ele></trkpt><trkpt lat="50.761158" lon="13.107479"><ele>457</ele></trkpt><trkpt lat="50.761087" lon="13.106922"><ele>453</ele></trkpt><trkpt lat="50.760951" lon="13.106399"><ele>449</ele></trkpt><trkpt lat="50.760747" lon="13.10593"><ele>446</ele></trkpt><trkpt lat="50.760661" lon="13.105392"><ele>443</ele></trkpt><trkpt lat="50.760719" lon="13.104832"><ele>441</ele></trkpt><trkpt lat="50.760694" lon="13.104354"><ele>438</ele></trkpt><trkpt lat="50.760342" lon="13.104391"><ele>437</ele></trkpt><trkpt lat="50.760075" lon="13.104761"><ele>435</ele></trkpt><trkpt lat="50.759835" lon="13.105183"><ele>432</ele></trkpt><trkpt lat="50.759535" lon="13.105451"><ele>428</ele></trkpt><trkpt lat="50.759225" lon="13.105696"><ele>423</ele></trkpt><trkpt lat="50.758965" lon="13.106089"><ele>418</ele></trkpt><trkpt lat="50.758743" lon="13.106537"><ele>414</ele></trkpt><trkpt lat="50.758522" lon="13.106986"><ele>410</ele></trkpt><trkpt lat="50.758311" lon="13.107446"><ele>406</ele></trkpt><trkpt lat="50.758102" lon="13.107909"><ele>401</ele></trkpt><trkpt lat="50.757892" lon="13.108371"><ele>397</ele></trkpt><trkpt lat="50.757614" lon="13.108416"><ele>392</ele></trkpt><trkpt lat="50.757325" lon="13.108077"><ele>387</ele></trkpt><trkpt lat="50.757078" lon="13.107666"><ele>383</ele></trkpt><trkpt lat="50.757076" lon="13.107108"><ele>379</ele></trkpt><trkpt lat="50.757105" lon="13.106546"><ele>375</ele></trkpt><trkpt lat="50.757033" lon="13.10599"><ele>372</ele></trkpt><trkpt lat="50.757008" lon="13.105423"><ele>369</ele></trkpt><trkpt lat="50.757178" lon="13.104934"><ele>367</ele></trkpt><trkpt lat="50.757365" lon="13.104452"><ele>365</ele></trkpt><trkpt lat="50.757506" lon="13.10393"><ele>362</ele></trkpt><trkpt lat="50.757643" lon="13.103404"><ele>359</ele></trkpt><trkpt lat="50.757783" lon="13.10288"><ele>357</ele></trkpt><trkpt lat="50.757918" lon="13.102352"><ele>356</ele></trkpt><trkpt lat="50.758033" lon="13.101814"><ele>355</ele></trkpt><trkpt lat="50.758049" lon="13.101254"><ele>354</ele></trkpt><trkpt lat="50.758083" lon="13.100691"><ele>354</ele></trkpt><trkpt lat="50.758116" lon="13.100129"><ele>355</ele></trkpt><trkpt lat="50.758021" lon="13.099582"><ele>354</ele></trkpt><trkpt lat="50.757861" lon="13.099073"><ele>353</ele></trkpt><trkpt lat="50.757711" lon="13.098556"><ele>351</ele></trkpt><trkpt lat="50.75759" lon="13.098021"><ele>350</ele></trkpt><trkpt lat="50.75753" lon="13.097462"><ele>349</ele></trkpt><trkpt lat="50.75748" lon="13.096899"><ele>349</ele></trkpt><trkpt lat="50.757446" lon="13.096334"><ele>348</ele></trkpt><trkpt lat="50.757413" lon="13.095768"><ele>348</ele></trkpt><trkpt lat="50.757438" lon="13.095201"><ele>346</ele></trkpt><trkpt lat="50.757531" lon="13.094661"><ele>346</ele></trkpt><trkpt lat="50.757823" lon="13.09433"><ele>345</ele></trkpt><trkpt lat="50.758104" lon="13.093975"><ele>346</ele></trkpt><trkpt lat="50.758365" lon="13.093586"><ele>345</ele></trkpt><trkpt lat="50.758603" lon="13.093161"><ele>344</ele></trkpt><trkpt lat="50.758892" lon="13.092838"><ele>343</ele></trkpt><trkpt lat="50.759244" lon="13.092763"><ele>342</ele></trkpt><trkpt lat="50.759593" lon="13.092889"><ele>341</ele></trkpt><trkpt lat="50.759934" lon="13.093069"><ele>339</ele></trkpt><trkpt lat="50.760255" lon="13.093324"><ele>338</ele></trkpt><trkpt lat="50.760577" lon="13.093579"><ele>338</ele></trkpt><trkpt lat="50.760899" lon="13.093831"><ele>338</ele></trkpt><trkpt lat="50.761222" lon="13.094083"><ele>338</ele></trkpt><trkpt lat="50.761544" lon="13.094335"><ele>339</ele></trkpt><trkpt lat="50.761874" lon="13.094561"><ele>340</ele></trkpt><trkpt lat="50.762206" lon="13.09478"><ele>341</ele></trkpt><trkpt lat="50.762548" lon="13.094953"><ele>341</ele></trkpt><trkpt lat="50.762896" lon="13.095097"><ele>341</ele></trkpt><trkpt lat="50.763004" lon="13.095144"><ele>340</ele></trkpt></trkseg></trk>
</gpx>